facility_id,original_facility_id,location_descriptive_name_common_name,street_address,suite_building_number,city,state,zip_code,station_phone_number,station_fax_number,latitude,longitude,monday_hours,tuesday_hours,wednesday_hours,thursday_hours,friday_hours,saturday_hours,sunday_hours,hours_note
VBA1,402,Togus Regional Benefit Office,1 VA Center,Bldg. 248,Augusta,ME,4330,1-800-827-1000,207-621-4898,44.280419,-69.704432,8:30 am - 4:00 pm,8:30 am - 4:00 pm,8:30 am - 4:00 pm,8:30 am - 4:00 pm,8:30 am - 4:00 pm,Closed,Closed,
VBA2,329,Detroit Regional Office,477 Michigan Avenue,12th Floor,Detroit,MI,48226,313-471-3600,313-471-3633,42.331332,-83.0534,8:00am - 4:30pm,8:00am - 4:30pm,8:00am - 4:30pm,8:00am - 4:30pm,8:00am - 4:30pm,CLOSED,CLOSED,CLOSED ON FEDERAL HOLIDAYS_
VBA3,377,VA San Diego Regional Office,8810 Rio San Diego Drive,,San Diego,CA,92108,619-400-5400,619-400-5418,32.776995,-117.14077,8 am - 4 pm,8 am - 4 pm,8 am - 4 pm,8 am - 4 pm,8 am - 4 pm,N/A,N/A,_Closed on federal holidays
VBA4,345,Phoenix VR&E Tucson Office,"Department of Veterans Affairs, VR&E (28)","1360 W. Irvington Rd., Ste. 150",Tucson,Arizona,85746,(602) 627-0020,(520) 294-3628,32.164927,-110.993764,8am - 4 pm,8am - 4 pm,8am - 4 pm,8am - 4 pm,8am - 4 pm,Closed,Closed,
VBA5,345,VR&E Flagstaff Office,"Department of Veterans Affairs, VR&E (28) ","1338 W Forest Meadows St, Suite 130",Flagstaff,Arizona,86001,928-226-1845,928-226-1846,35.184863,-111.671169,8 am - 4 pm,8 am - 4 pm,8 am - 4 pm,8 am - 4 pm,8 am - 4 pm,Closed,Closed,
VBA6,None,VBA Vocational Rehabilitation and Employment,21885 Dunham Road,,Clinton Township,MI,48036,5864695454,5864695316,42.617587,-82.898552,8:00am - 4:30pm,8:00am - 4:30pm,8:00am - 4:30pm,8:00am - 4:30pm,8:00am - 4:30pm,CLOSED,CLOSED,CLOSED FEDERAL HOLIDAYS
VBA7,None,VBA Vocational Rehabilitation and Employment,Gerald R. Ford Federal Building,110 Michigan Street,Grand Rapids ,MI,49503,616-456-2057,616-456-2921,42.969761,-85.670841,8:00am - 4:30pm,8:00am - 4:30pm,8:00am - 4:30pm,8:00am - 4:30pm,8:00am - 4:30pm,CLOSED,CLOSED,CLOSED ON FEDERAL HOLIDAY_
VBA8,None,VBA Vocational Rehabilitation and Employment,Oscar G. Johnson VA Medical Center,"25 East ""H"" Street, Room 6206B",Iron Mountain,MI,49801,906-779-3984,906-779-3983,32.638106,-117.06396,8:00am - 4:30pm,8:00am - 4:30pm,8:00am - 4:30pm,8:00am - 4:30pm,8:00am - 4:30pm,CLOSED,CLOSED,CLOSED ON FEDERAL HOLIDAYS_
VBA9,437,Fargo VA Regional Benefits Office,2101 Elm Street,,Fargo,ND,58102,800-827-100,701-451-4689,46.905979,-96.775124,8 am to 4 pm,8 am to 4 pm,8 am to 4 pm,8 am to 4 pm,8 am to 4 pm,closed,closed,
VBA10,None,VBA Vocational Rehabilitation and Employment,3001 Coolidge Road,Suite 401,East Lansing ,MI,48823,517-203-0945,517-203-0954,42.76568,-84.504468,8:00am - 4:30pm,8:00am - 4:30pm,8:00am - 4:30pm,8:00am - 4:30pm,8:00am - 4:30pm,CLOSED,CLOSED,CLOSED ON FEDERAL HOLIDAYS_
VBA11,None,VBA Vocational Rehabilitation and Employment,200 N. Main Street,Room 310,Mt. Pleasant,MI,48858,989-953-7164,989-953-7161,43.605689,-84.775804,8:00am - 4:30pm,8:00am - 4:30pm,8:00am - 4:30pm,8:00am - 4:30pm,8:00am - 4:30pm,CLOSED,CLOSED,CLOSED ON FEDERAL HOLIDAYS_
VBA12,None,VBA Vocational Rehabilitation and Employment,VA Health Care Annex,"5360 Hampton Place, Suite 200",Saginaw,MI,48604,989-497-2500,989-321-4922,43.484861,-83.958506,8:00am - 4:30pm,8:00am - 4:30pm,8:00am - 4:30pm,8:00am - 4:30pm,8:00am - 4:30pm,CLOSED,CLOSED,CLOSED ON FEDERAL HOLIDAYS_
VBA13,NONE,VBA Vocational Rehabilitation and Employment,5500 Armstrong Road Building 07,Room 12,Battle Creek,MI,49037,269-223-5577,269-223-5216,42.34327,-85.291473,8:00am - 4:30pm,8:00am - 4:30pm,8:00am - 4:30pm,8:00am - 4:30pm,8:00am - 4:30pm,CLOSED,CLOSED,CLOSED ON FEDERAL HOLIDAYS_
VBA14,None,VBA Vocational Rehabilitation and Employment,Student Veterans Resource Center,"131 University Pavilion, 303 East Kearsley Street",Flint ,MI,48502,810-424-5582,810-762-0324,43.006034,-83.68699,8:00am - 4:30pm,8:00am - 4:30pm,8:00am - 4:30pm,8:00am - 4:30pm,8:00am - 4:30pm,CLOSED,CLOSED,CLOSED ON FEDERAL HOLIDAYS_
VBA15,None,VBA Vocational Rehabilitation and Employment,Ann Arbor VA Medical Center,"2215 Fuller Road, Room B645 (135)",Ann Arbor,MI,48105,734-845-5185,734-845-3873,42.286143,-83.71402,8:00am - 4:30pm,8:00am - 4:30pm,8:00am - 4:30pm,8:00am - 4:30pm,8:00am - 4:30pm,CLOSED,CLOSED,CLOSED ON FEDERAL HOLIDAYS
VBA16,None,VBA Vocational Rehabilitation and Employment,2650 LaFranier Road,,Traverse City,MI,49686,231-995-7063,231-995-7062,44.724842,-85.60382,8:00am - 4:30pm,8:00am - 4:30pm,8:00am - 4:30pm,8:00am - 4:30pm,8:00am - 4:30pm,CLOSED,CLOSED,CLOSED ON FEDERAL HOLIDAYS
VBA17,438,sioux falls regional office,2501 W 22ND STREET,,SIOUX FALLS,SD,57105,800-827-1000,605-333-5316,43.531102,-96.755246,8AM - 4:30 PM,8AM - 4:30 PM,8AM - 4:30 PM,8AM - 4:30 PM,8AM - 4:30 PM,CLOSED,CLOSED,
VBA18,341,Salt Lake City Regional Benefit Office ,550 Foothill Drive,,Salt Lake City ,Utah ,84158,1800-827-1000,801-326-2409,40.758441,-111.83948,8am-4pm,8am-4pm,8am-4pm,8am-4pm,8am-4pm,Closed ,Closed,
VBA19,N/A,Intake Site At Hill Air Force Base,"Airman Family Readiness Center 5837 D Ave, BLDG 150",,Hill Air Force Base,Utah ,84074,1800-827-1000,1800-827-1000,41.11,-111.98,8am-4pm,8am-4pm,8am-4pm,8am-4pm,8am-4pm,Closed ,Closed ,
VBA20,436,Fort Harrison Regional Benefit Office,3633 Veterans Drive,,Fort Harrison,Montana ,59636,1800-827-1000,1800-827-1000,46.61635,-112.100507,8am-4pm,8am-4pm,8am-4pm,8am-4pm,8am-4pm,Closed ,Closed ,
VBA21,N/A,Intake Site At Malmstrom Air Force Base,3633 Veterans Drive,,Fort Harrison,MT ,59636,1800-827-1000,N/A,46.61635,-112.100507,8am-4pm,8am-4pm,8am-4pm,8am-4pm,8am-4pm,Closed ,Closed ,
VBA22,351,Muskogee Regional Benefits Office,125 S. Main Street,,Muskogee,OK,74401,1-800-827-1000,918-781-7548,35.747424,-95.369652,7:30 am - 4:00 pm,7:30 am - 4:00 pm,7:30 am - 4:00 pm,7:30 am - 4:00 pm,7:30 am - 4:00 pm,Closed,Closed,
VBA23,326,Indianapolis Regional Benefit Office,575 N Pennsylvania St,,Indianapolis,IN,46204,317-916-3400,317-916-3818,39.774749,-86.155077,8 am - 4 pm,8 am - 4 pm,8 am - 4 pm,8 am - 4 pm,8 am - 4 pm,closed,closed,
VBA24,376,Records Management Center,4300 Goodfellow Blvd,,St. Louis,MO,63120,888-533-4558,314-679-3731,38.691388,-90.267071,7:30 am - 4:30 pm,7:30 am - 4:30 pm,7:30 am - 4:30 pm,7:30 am - 4:30 pm,7:30 am - 4:30 pm,7:30 am - 4:30 pm,7:30 am - 4:30 pm,
VBA25,331,ST. Louis Regional Benefit Office,400 S. 18th Street,,ST. Louis,Missouri,63103,1-800-827-1000,314-552-9715,38.626646,-90.207103,8am-4pm,8am-4pm,8am-4pm,8am-4pm,8am-4pm,Closed,Closed,
VBA26,331,Fort Leonard Wood,4430 MO Avenue ,5th floor room 569/571,Fort Leonard Wood,Missouri,65473,573-596-0131 ext. 66623,573-596-0510,37.7057,-92.1572,7am-3:30pm,7am-3:30pm,7am-3:30pm,7am-3:30pm,7am-3:30pm,closed,closed,
VBA27,331,"ST. Louis Regional Benefits Office (Lees Summit, MO)",3170 NE Carnegie Drive Suite 100,,Lees Summit,Missouri,64064,816-246-1411 ext. 1021,816-246-1487,38.970108,-94.360194,8am-4pm,8am-4pm,8am-4pm,8am-4pm,8am-4pm,closed,closed,
VBA28,331,Scott AFB (ST. Louis Regional Office Pre-discharge),310 Losey Street,Room B222,Scott AFB,Illinois,62225,314-552-9789,314-552-0715,38.542702,-89.869179,8am-4pm,8am-4pm,8am-4pm,8am-4pm,8am-4pm,closed,closed,
VBA29,345,Tucson Vocational Rehabilitaton and Employment Office,1360 West Irvington Road,Suite # 150,Tucson,AZ,85746,602-627-0020,520-294-3628,32.164927,-110.993764,8 am - 4 pm,8 am - 4 pm,8 am - 4 pm,8 am - 4 pm,8 am - 4 pm,N/A,N/A,
VBA30,345,Flagstaff Vocational Rehabilitation and Employment Office,1338 West Forest Meadows Street,#130,Flagstaff,AZ,86001,928-226-1845,928-226-1846,35.184863,-111.671169,8 am - 4 pm,8 am - 4 pm,8 am - 4 pm,8 am - 4 pm,Office Closed,N/A,N/A,"_One employee out-based location,��_��__the employee works four 10 hour shifts, Monday to Thursday,��_��__office not open on��_��__Fridays.��_��__"
VBA31,351,"Fort Sill, OK",BLDG 4700  ,Suite 317,Fort Sill,OK,73503,580-442-2469,580-442-7561,34.6774,-98.3993,7:30 am - 4 pm,7:30 am - 4 pm,7:30 am - 4 pm,7:30 am - 4 pm,7:30 am - 4 pm,0,0,
VBA32,351,"Tinker, OK",7050 Air Depot Blvd,BLDG #1094  Suite GH03,Tinker AFB,OK,73145,405-582-6089,405-736-3792,35.407897,-97.404139,7:30 am - 4:00 pm,7:30 am - 4:00 pm,7:30 am - 4:00 pm,7:30 am - 4:00 pm,7:30 am - 4:00 pm,0,0,
VBA33,351,Oklahoma City Outbased Office,301 NW 6th St,Suite 113,Oklahoma City,OK,73102,405-609-8220,405-609-8228,35.474063,-97.517762,7:30 am - 4:00 am,7:30 am - 4:00 am,7:30 am - 4:00 am,7:30 am - 4:00 am,7:30 am - 4:00 am,0,0,
VBA34,345,Fort Huachuca  Vocational Rehabilitation and Employment IDES Office,Building 22420,Butler Road,Fort Huachuca,AZ,85613,520-533-5928,N/A,31.5437,-110.3486,10 am - 2 pm,N/A,10 am - 2 pm,N/A,N/A,N/A,N/A,_Employee works at this office 2 days a week to support VR&E portion of IDES at Fort Huachuca.
VBA35,330,Milwaukee VA Regional Office-VetSuccess at UW-Milwaukee,"University of Wisconsin-Milwaukee, Student Union Room 319",2200 E Kenwood Drive,Milwaukee,Wisconsin,53201,414-229-6488,None,43.074763,-87.882772,7:30 am - 4:00 pm,7:30 am - 4:00 pm,7:30 am - 4:00 pm,7:30 am - 4:00 pm,7:30 am - 4:00 pm,Closed,Closed,_Appointment recommended
VBA36,330,"Milwaukee VA Regional Office, Green Bay Vocational Rehabilitation and Employment Office","2900 Curry Lane, Suite B",,Green Bay,Wisconsin,54311,920-965-0001,920-965-0003,44.523406,-87.93449,8:00 am - 3:00 pm,8:00 am -4:00 pm,8:00 am -4:00 pm,8:00 am -4:00 pm,8:00 am -4:00 pm,Closed,Closed,_Closed every-other Monday.��_��__ Appointment Highly Recommended.
VBA37,330,"Milwaukee VA Regional Office, Eau Claire Vocational Rehabilitation and Employment Office","2125 Heights Drive, #3H",,Eau Claire,Wisconsin,54701,715-834-2154,715-834-2650,44.795545,-91.51508,7:00 am - 4:00 pm,7:00 am - 4:00 pm,7:00 am - 4:00 pm,7:00 am - 4:00 pm,7:00 am - 4:00 pm,Closed,Closed,Appointment Highly Recommended_
VBA38,Not applicable,Muskogee VA Regional Office,808 East Main St.  Ste D,,Ada,OK ,74820,580 235 0209,None,34.774813,-96.667834,8 am - 4 pm,8 am - 4 pm,8 am - 4 pm,8 am - 4 pm,8 am - 4 pm,none,None,
VBA39,None,"Muskogee VA Regional Office, Sheppard Air Force Base outbased office",149 Hart St,"Building 1200, Room 245E",Sheppard AFB,TX,76311,940 676 0958,None,33.97,-98.51,8 am - 4:30 pm,8 am - 4:30 pm,8 am - 4:30 pm,8 am - 4:30 pm,8 am - 4:30 pm,none,none,
VBA40,330,"Milwaukee VA Regional Office, Middleton/Madison Vocational Rehabilitation and Employment Office","3220 Deming Way, Room 105",,Middleton,Wisconsin,53562,608-830-6499,608-830-6654,39.458418,-87.370402,8:00 am - 4:30 pm,8:00 am - 4:30 pm,8:00 am - 4:30 pm,8:00 am - 4:30 pm,8:00 am - 4:30 pm,Closed,Closed,Building is not open to the public. Appointment Required._
VBA41,345,VetSuccess on Campus Office,Arizona State University,"Memorial Student Union, Lower Level, Room 75",Tempe,Arizona,85287,480-727-5627,215-842-7212,33.416546,-111.927743,8 am - 5 pm,8 am - 5 pm,8 am - 5 pm,8 am - 5 pm,8 am - 5 pm,N/A,N/A,_Vocational Rehabilitation and Employment VetSuccess on Campus Office
VBA42,350,Little Rock Regional Benefit Office,2200 Fort Roots Drive,Bldg. 65,North Little Rock,AR,72114,501-370-3700,501-370-3831,34.777611,-92.297128,8 am - 4 pm,8 am - 4 pm,8 am - 4 pm,8 am - 4 pm,8 am - 4 pm,Closed,Closed,Closed Federal Holidays_
VBA43,345,Phoenix Regional Office,"Arizona State University, Pat Tillman Center","1290 S. Normal Ave, Rm 75",Tempe,Arizona,85281,480-727-5627,215-842-7212,33.41382,-111.932764,8:00 - 5:00,8:00 - 5:00,8:00 - 5:00,8:00 - 5:00,8:00 - 5:00,Closed,Closed,_Hours are associated with operating hours at ASU.
VBA44,NE 0051,Zorinsky Federal Building,"1616 Capital Avenue, Ste 290",,Omaha,NE,68102,402-221-7590,215-842-6504,41.261006,-95.96644,8:00 am - 4:30 pm,8:00 am - 4:30 pm,8:00 am - 4:30 pm,8:00 am - 4:30 pm,8:00 am - 4:30 pm,Closed,Closed,_The facility is also closed on holidays.
VBA45,VetSuccess On Campus,Bellevue University ,1000 Galvin Road,,Omaha ,NE,68182,402-554-2531,215-842-6504,41.150734,-95.917927,8:00 am - 4:30 pm,8:00 am - 4:30 pm,8:00 am - 4:30 pm,8:00 am - 4:30 pm,8:00 am - 4:30 pm,Closed,Closed,_Closed on federal holidays.
VBA46,"MaV USO, EAB-108",University of Nebraska at Omaha,6001 Dodge Street,,Omaha,NE,68182,402-554-2531,215-842-6504,41.257767,-96.010519,8:00 - 16:30,8:00 - 16:30,8:00 - 16:30,8:00 - 16:30,8:00 - 16:30,Closed,Closed,_Closed on federal holidays.
VBA47,Western Nebraska,National Guard Armory,2225 Legion Park,PO Box 54,Sidney,NE,69153-2515,308-203-1234 and 308-249-7548,215-842-6504,40.066142,-95.597812,8:00 - 1630,8:00 - 1630,8:00 - 1630,8:00 - 1630,8:00 - 1630,Closed,Closed,_Closed on federal Holidays.
VBA48,NE3509,VA Regional Office,3800 Village Drive ,PO Box 85816,Lincoln ,NE,68501-5816,800-827-1000,215-842-4014,40.754258,-96.665624,8:00 am - 4:30 pm ,8:00 am - 4:30 pm ,8:00 am - 4:30 pm ,8:00 am - 4:30 pm ,8:00 am - 4:30 pm ,8:00 am - 4:30 pm ,8:00 am - 4:30 pm ,_Closed on federal holidays.
VBA49,321,New Orleans Vocational Rehabilitation and Employment Services Office,1250 Poydras Street,,New Orleans,LA,70113,504-619-4346,504-252-4682,29.950396,-90.07641,8 am - 4 pm,8 am - 4 pm,8 am - 4 pm,8 am - 4 pm,8 am - 4 pm,Closed,Closed,
VBA50,307,Rochester Outpatient Clinic,465 Westfall Rd.,,Rochester,NY,14620,585-463-2746,585-463-2746,43.114452,-77.606103,8:00am - 4:30pm,8:00am - 4:30pm,8:00am - 4:30pm,8:00am - 4:30pm,8:00am - 4:30pm,Not open,Not open,
VBA51,307,"Veterans Success on Campus, Syracuse University",700 University Ave,Room 326G,Syracuse,NY,13224,315-443-0177,315-443-8015,43.042451,-76.13477,8:15am - 3:15pm,8:15am - 3:15pm,8:15am - 3:15pm,8:15am - 3:15pm,8:15am - 3:15pm,Not open,Not open,
VBA52,307,Buffalo Regional Benefit Office,130 South Elmwood Ave,Suite 601,Buffalo,NY,14202,716-857-3327,1-800-827-1000,42.889112,-78.879956,8:00am - 4:30pm,8:00am - 4:30pm,8:00am - 4:30pm,8:00am - 4:30pm,8:00am - 4:30pm,Not open,Not open,
VBA53,307,Syracuse VR&E Outstation,344 West Genesee St,,Syracuse,NY,13202,1-800-827-1000,716-551-3072,43.052938,-76.156018,Appointment only,Appointment only,Appointment only,Appointment only,Appointment only,Not open,Not open,
VBA54,307,VRE Fort Drum Outstation,PO Box 790,,Watertown,NY,13602,1-800-827-1000,716-551-3072,43.9748,-75.9108,Appointment only,Appointment only,Appointment only,Appointment only,Appointment only,Not open,Not open,
VBA55,321,Shreveport Vocational Rehabilitation and Employment Outbased Office,3341 Youree Drive,,Shreveport,LA,71105,318-861-3984,318-869-4210,32.478012,-93.721221,8 am - 4 pm,8 am - 4 pm,8 am - 4 pm,8 am - 4 pm,8 am - 4 pm,Closed,Closed,
VBA56,307,Fort Drum BDD and Quick Start Intake Center,T-27 North Lewis Ave,,Fort Drum,NY,13602,1-800-827-1000,NA,44.029224,-75.789206,Appointment only,Appointment only,Appointment only,Appointment only,Appointment only,Not open,Not open,
VBA57,307,Fort Drum IDES Intake Center,10519 Korengal Valley Drive,Clark Hall,Fort Drum,NY,13602,1-800-827-1000,NA,44.0462,-75.7772,Appointment only,Appointment only,Appointment only,Appointment only,Appointment only,Appointment only,Not open,
VBA58,330,Milwaukee Regional Benefit Office,5400 W. National Ave.,,Milwaukee,Wisconsin,53214,414-902-5001,414-902-9400,43.018779,-87.98029,8 a.m. - 4 p.m.,8 a.m. - 4 p.m.,8 a..m.- 4 p.m.,8 a.m. - 4 p.m.,8 a.m. - 4 p.m.,Closed,Closed,
VBA59,354,Reno Regional Benefit Office,5460 Reno Corporate Dr.,,Reno,NV,89511,775-321-4700,775-321-4705,39.466799,-119.764555,6 am - 6 pm,6 am - 6 pm,6 am - 6 pm,6 am - 6 pm,6 am - 6 pm,closed,closed,_Hours of operation include hours outside of times when Veterans are seen.
VBA60,NA,El Paso Vocational Rehabilitation and Employment Office,7500 Viscount Blvd,Suite C-50,El Paso,Texas,79925,915-772-2195,915-772-0161,31.779916,-106.385991,7:30 am to 4:30 pm,7:30 am to 4:30 pm,7:30 am to 4:30 pm,7:30 am to 4:30 pm,7:30 am to 4:30 pm,NA,NA,
VBA61,NA,El Paso VR&E IDES,IDES Bldg 11282 RM 170,Sgt. C. Thomas Blvd ,Fort Bliss,Texas,79916,915-742-5080,915-772-0161,31.82,-106.43,7:30 am to 4:30 pm,7:30 am to 4:30 pm,7:30 am to 4:30 pm,7:30 am to 4:30 pm,7:30 am to 4:30 pm,NA,NA,
VBA62,NA,El Paso VR&E IDES Soldier Family Assistance Center,SFAC Bldg 887 Marshall Road,,Fort Bliss,Texas,79916,915-742-7014,915-772-0161,29.168407,-95.44437,7:30 am - 4:30 pm,7:30 am - 4:30 pm,7:30 am - 4:30 pm,7:30 am - 4:30 pm,7:30 am - 4:30 pm,NA,NA,
VBA63,NA,Lubbock Vocational Rehabilitation and Employment Office,VA Outpatient Clinic ,6104 Avenue Q South Drive Rm 900,Lubbock,Texas,79412,806-472-3487,806-472-3497,33.54073,-101.848193,7:30 am - 4:30 pm,7:30 am - 4:30 pm,7:30 am - 4:30 pm,7:30 am - 4:30 pm,7:30 am - 4:30 pm,NA,NA,
VBA64, ,St. Louis Outbased VR&E-Springfield Office,3639 South Ave,,Springfield,MO,65807,314-552-9200,417-887-6516,37.147891,-93.293911,8 am - 4:30 pm,8 am - 4:30 pm,8 am - 4:30 pm,8 am - 4:30 pm,8 am - 4:30 pm,closed,closed,
VBA65,319,Columbia VA Regional Benefit Office,6437 Garners Ferry Rd,,Columbia,SC,29209,8036472444,8036472301,33.978448,-80.962753,8:00 am - 4:00 pm,8:00 am - 4:00 pm,8:00 am - 4:00 pm,8:00 am - 4:00 pm,8:00 am - 4:00 pm,Closed,Closed,
VBA66,NA,Charleston Air Force Base,Airmam & Family Readiness Center Bldg,#500,Charleston,SC,29404,8035432189,8437946366,41.128381,-80.649178,9:00 am - 2:00 pm,9:00 am - 2:00 pm,NA,NA,NA,NA,NA,_bi-weekly Monday or Tuesday
VBA67,NA,Beaufort Naval Hospital,1 Pinckney Blvd,Box 6188A,Beaufort,SC,29902,8432285470,8432285466,32.38944,-80.682475,8:00 am - 4:00 pm,8:00 am - 4:00 pm,8:00 am - 4:00 pm,8:00 am - 4:00 pm,8:00 am - 4:00 pm,Closed,Closed,
VBA68,NA,Charleston Naval Weapons Station,"Jefferson Ave, #755",,Goose Creek,sc,29445,8035432189,8437946366,34.916509,-81.028973,9:00 am - 2:00 pm,9:00 am - 2:00 pm,NA,NA,NA,NA,NA,Bi-Weekly _Monday or Tuesday
VBA69,NA,Fort Jackson-Moncrief Army Medical Community Hospital,4600 Room A207,Strom Thurmond Blvd,Ft Jackson,SC,29207,8037678370,8036472301,34.01934,-80.941416,9:00 am - 4:00 pm,NA,9:00 am - 4:00 pm,NA,NA,NA,NA,
VBA70,NA,Shaw Air Force Base,20th Medical Group Patient Admin BLDG 1051,,Shaw AFB,SC,29154,8037678370,8036472301,33.97,-80.48,NA,9:30 am - 3:30 pm,10:00 am - 3:30 pm,9:30 am - 3:30 pm,NA,NA,NA,
VBA71,NA,North Charleston Rehabilitation and Employment Office,"4600 Goer Dr, Ste 110",,North Charleston,SC,29406,8437409114,8437456210,32.870666,-80.008704,8:00 am - 4:30 pm,8:00 am - 4:30 pm,8:00 am - 4:30 pm,8:00 am - 4:30 pm,8:00 am - 4:30 pm,NA,NA,
VBA72,NA,Greenville Vocational Rehabilitation and Employment Office,"24 Vardry St, Ste 102",,Greenville,SC,29601,8642719682,8642715262,34.841092,-82.407522,8:00 am - 4:30 pm,8:00 am - 4:30 pm,8:00 am - 4:30 pm,8:00 am - 4:30 pm,8:00 am - 4:30 pm,NA,NA,
VBA73,N/A,Muskogee VA Regional Office Vocational Rehabilitation and Emp,Cameron University 2800 W Gore Blvd,304 Shepler Tower,Lawton ,OK,73505,580 581 5412,580 581 5417,34.608868,-98.432523,8 am - 4 pm,8 am - 4 pm,8 am - 4 pm,8 am - 4 pm,8 am - 4 pm,N/A,N/a,
VBA74,349,Waco Regional Office ,701 Clay Avenue ,,Waco,Texas,76799,(254) 299-9816,(254) 299-9824,31.551544,-97.129242,8AM- 4:30 PM,8AM- 4:30 PM,8AM- 4:30 PM,8AM- 4:30 PM,8AM- 4:30 PM,N/A,N/A,
VBA75,333,Des Moines VA Regional Benefits Office,210 Walnut Street,,Des Moines ,Iowa,50309,18008271000,n/a,41.586101,-93.620355,8:30 am - 4pm,8:30 am - 4pm,8:30 am - 4pm,8:30 am - 4pm,8:30 am - 4pm,8:30 am - 4pm,8:30 am - 4pm,
VBA76,321,Ft. Polk VR&E IDES Outbased Office,1778 3rd Street,,Fort Polk,LA,71459,337-531-8896,337-531-8199,29.973989,-90.250167,8 am - 4 pm,8 am - 4 pm,8 am - 4 pm,8 am - 4 pm,8 am - 4 pm,Closed,Closed,
VBA77,607,Milwaukee Regional Benefit Office,2500 Overlook Terrace,,Madison,Wisconsin,53705,608-280-7084,N/A,43.074375,-89.430846,Closed,Closed,Closed,10 a.m. to 2 p.m.,Closed,Closed,Closed,The Thursday hours noted above are for the 3rd Thursday of each month._
VBA78,676,Milwaukee Regional Benefit Office,500 E. Veterans St.,,Tomah,Wisconsin,54660,608-372-3971,N/A,44.003078,-90.493318,Closed,Closed,Closed,7:45 a.m. to 1:00 p.m.,Closed,Closed,Closed,Open the _3rd Thursday of each month
VBA79,607,Milwaukee Regional Benefit Office,2500 Overlook Terrace,,Madison ,Wisconsin,53705,608-256-1901,N/A,43.074375,-89.430846,Closed,Closed,10 a.m. to 2:00 p.m.,Closed,Closed,Closed,Closed,Open the 1st Wednesday of every month._
VBA80,310,Philadelphia Regional Office,5000 Wissahickon Ave.,,Philadelphia,PA,19144,215-842-2000,n/a,40.017104,-75.174498,8 am - 4:30 pm,8 am - 4:30 pm,8 am - 4:30 pm,8 am - 4:30 pm,8 am - 4:30 pm,closed,closed,
VBA81,460,Wilmington Regional Benefit Office,1601 Kirkwood Hwy,,Wilmington,DE,19805,215-842-2000,n/a,39.740456,-75.606388,8:30 am - 4:00 pm,8:30 am - 4:00 pm,8:30 am - 4:00 pm,8:30 am - 4:00 pm,8:30 am - 4:00 pm,closed,closed,
VBA82,NA,Abilene Vocational Rehabilitation and Employment Office,1150 Estates Dr,Suite B,Abilene,Texas,79602,325-677-1503,325-676-0122,32.435653,-99.704827,8 am - 4:30 pm,8 am - 4:30 pm,8 am - 4:30 pm,8 am - 4:30 pm,8 am - 4:30 pm,NA,NA,
VBA83,317,St. Petersburg Regional Office,9500 Bay Pines Boulevard,,St. Petersburg,FL,33708,727-319-5828,727-319-7761,27.809397,-82.776811,0830-1600,0830-1600,0830-1600,0830-1600,0830-1600,CLOSED,CLOSED,
VBA84,335,St. Paul Regional Benefit Office,1 Federal Drive,Fort Snelling,St. Paul,MN,55111,800-827-1000,612-970-5415,45.017666,-93.105826,8 am - 4:30 pm,8 am - 4:30 pm,8 am - 4:30 pm,8 am - 4:30 pm,8 am - 4:30 pm,closed,closed,
VBA85,n/a,Ft. Campbell Benefits Delivery at Discharge (BDD) and Quick Start (QS) Pre-Discharge Intake Site ,5668 Wickham Ave,,Ft. Campbell,Kentucky,42223,931-431-0661,n/a,36.6536,-87.4597,7:30 AM-3:30 PM,7:30 AM-3:30 PM,7:30 AM-3:30 PM,7:30 AM-3:30 PM,7:30 AM-3:30 PM,none,none,"_This site also houses eight IDES VR&E Counselors and three VSO offices��_��__(TDVS, DAV and VFW).��_��__ Additionally, a BDD Military Service Coordinator completes any needed survivor claims assistance as the Casualty Assistance Coordinator from this site."
VBA86,n/a,Ft. Campbell Integrated Disability Evaluation System Site,5980 Desert Storm Ave,,Ft. Campbell,Kentucky,42223,270-461-1562 ,n/a,36.635243,-87.459951,7:30 AM-4:00 PM,7:30 AM-4:00 PM,7:30 AM-4:00 PM,7:30 AM-4:00 PM,7:30 AM-4:00 PM,none,none,
VBA87,321,Bayne Jones Army Community Hospital,1585 3rd Street,,Fort Polk,LA,71459-5110,337-653-2367,504-252-4676,31.308615,-92.441408,8 am - 4:30 pm,8 am - 4:30 pm,8 am - 4:30 pm,8 am - 4:30 pm,8 am - 4:30 pm,N/A,N/A,
VBA88,321,Bayne Jones Army Community Hospital,1585 3rd Street,,Fort Polk,LA,71459-5110,337-531-3075,504-252-4676,31.308615,-92.441408,7:30 am - 4 pm,7:30 am - 4 pm,7:30 am - 4 pm,7:30 am - 4 pm,7:30 am - 4 pm,N/A,N/A,
VBA89,321,Vocational Rehab and Employment Service,3341 Youree Drive,Suite 109,Shreveport,LA,71105,504-619-4318,318-869-4210,32.478012,-93.721221,7 am - 3:30 pm,7 am - 11 am,7 am - 3:30 pm,7 am - 11 am,7 am - 3:30 pm,n/a,n/a,
VBA90,321,New Orleans Regional Office,1250 Poydras Street,Suite 200,New Orleans,LA,70113,504-619-4421,504-252-4676,29.950396,-90.07641,8 am to 4 pm,8 am to 4 pm,8 am to 4 pm,8 am to 4 pm,8 am to 4 pm,n/a,n/a,
VBA91,320,Nashville Regional Office VetSuccess on Campus at MTSU,"VetSuccess on Campus Representative, Registrar��_��__s Office",201 Cope Administration Building, Murfreesboro,TN,37132,615-898-2974,none,35.677588,-85.76078,7:30 am - 5 pm,7:30 am - 5 pm,7:30 am - 5 pm,7:30 am - 5 pm,7:30 am - 12 pm,closed,closed,Closed every other Friday_
VBA92,320,Nashville RO VetSuccess on Campus at APSU,"VetSuccess on Campus, Austin Peay State University",P O Box  4674,Clarksville,TN,37044,931-221-6194,none,25.833644,-80.332553,7:30 am - 4:30 pm,7:30 am - 4:30 pm,7:30 am - 4:30 pm,7:30 am - 4:30 pm,7:30 am - 12 pm,Closed,Closed,Closed every other Friday_
VBA93,320,VRE Clarksville Outbased Office,227-B Dunbar Cave Rd,,Clarksville,TN,37043,901-906-0230,931-906-1515,36.549428,-87.289302,7 am - 3:30 pm,7 am - 3:30 pm,7 am - 3:30 pm,7 am - 3:30 pm,7 am - 3:30 pm,Closed,Closed,
VBA94,320,Fort Campbell VRE IDES Outbased Office,5668 Wickam Ave,,Fort Campbell,KY,42223,931-431-2447,931-431-5014,36.6536,-87.4597,7:30 am - 3 pm,7:30 am - 3 pm,7:30 am - 3 pm,7:30 am - 3 pm,7:30 am - 3 pm,Closed,Closed,
VBA95,320,"J.D. Duncan Federal Building, Vocational Rehabilitation and Employment Services",710 Locust Street,Suite 205,Knoxville,TN,37902,865-545-4307,865-545-4306,35.961819,-83.919922,6:30 am - 5 pm,6:30 am - 5 pm,6:30 am - 5 pm,6:30 am - 5 pm,6:30 am - 5 pm,Closed,Closed,
VBA96,320,Memphis VRE Outbased Office,225 N. Humphreys Blvd,Suite 1028,Memphis,TN,38120,901-544-0380,901-544-0332,35.133061,-89.863133,6 am - 4 pm,6 am - 4 pm,6 am - 4 pm,6 am - 4 pm,6 am - 4 pm,Closed,Closed,
VBA97,320,"Nashville Regional Office, Vocaitonal Rehabilitation and Employment",110 9th Ave South,Room A110,Nashville,TN,37203,615-695-6372,615-695-6164,36.15814,-86.783282,7:30 am - 4 pm,7:30 am - 4 pm,7:30 am - 4 pm,7:30 am - 4 pm,7:30 am - 4 pm,Closed,Closed,
VBA98,343,Oakland Regional Office,1301 Clay Street,Suite 1400 North,Oakland,CA,94612,510-637-6128,510-637-6119,37.804927,-122.274913,8am-4pm,8am-4pm,8am-4pm,8am-4pm,8am-4pm,8am-4pm,8am-4pm,
VBA99,n/a,Camp Lejeune Pre-Discharge Intake Site,"Building 501, N Street",,Camp Lejeune,NC,28547,910 451-0801,910 451-0802,34.653237,-77.346603,7:30 AM - 4:00 PM,7:30 AM - 4:00 PM,7:30 AM - 4:00 PM,7:30 AM - 4:00 PM,7:30 AM - 4:00 PM,None,None,
VBA100,Building 4-2843,"Department of Veterans Affair Office, Fort Bragg, NC",Building 4-2843 Normandy Drive,,Fort Bragg,North Carolina,28307,910-396-8472,910-396-6512,35.141115,-78.998469,8 am to 4pm,8 am to 4pm,8 am to 4pm,8 am to 4pm,8 am to 4pm,8 am to 4pm,8 am to 4pm,
VBA101,VA Medical Center,Grand Island NE VA Medical Center,2201 N Broadwell Avenue,,Grand Island,NE,68803,(308) 382-3660,N/A,40.943418,-98.357181,N/A,N/A,10:00 am - 2:30 pm ,N/A,N/A,Closed ,Closed ,_Closed on federal holidays
VBA102,VA Medical Center,Lincoln VA Medical Center,600 S 70th Street,,Lincoln,NE,68510,(402) 489-3802,N/A,40.807765,-96.621372,N/A,8:00 am - 4:30 pm ,N/A,N/A,N/A,Closed,Closed,_Closed on federal holidays
VBA103,Omaha VA Medical Center,Omaha VA Medical Center,4101 Woolworth Avenue,,Omaha,NE,68105,"(800) 451-5796, ext 3215",N/A,41.242985,-95.97427,N/A,8:00 am - 4:30 pm ,N/A,N/A,N/A,Closed,Closed,_Closed on federal holidays.
VBA104,323C,Offutt AFB Building C,106 Peacekeeper Drive STE 2N3 ,705 Nelson Drive,Offutt AFB,NE,68113,(402) 232-8136 and (402) 232-7363,(402) 232-8137,41.124846,-95.919855,8:00 am - 4:00 pm ,8:00 am - 4:00 pm ,8:00 am - 4:00 pm ,8:00 am - 4:00 pm ,8:00 am - 4:00 pm ,Closed,Closed,_Closed on all federal holidays.
VBA105,322,Montgomery Vocational Rehabilitation and Employment Services Office,603 Interstate Park Drive,,Montgomery,Alabama,36109,334-396-1986,334-396-9091,32.361849,-86.24313,8 am - 4 pm,8 am - 4 pm,8 am - 4 pm,8 am - 4 pm,8 am - 4 pm,Closed,Closed,
VBA106,322,Birmingham Vocational Rehabilitation and Employment Services Office,950 22nd Street North,# 777,Birmingham,Alabama,35203,205-731-0037,205-731-0036,33.524939,-86.809127,8 am - 4 pm,8 am - 4 pm,8 am - 4 pm,8 am - 4 pm,8 am - 4 pm,Closed,Closed,
VBA107,322,Huntsville Vocational Rehabilitation and Employment Services Office,400 Meridian Street,Suite 101,Huntsville,Alabama,35801,256-533-2507,256-533-2572,34.734923,-86.586503,8am - 4pm,8am - 4pm,8am - 4pm,8am - 4pm,8am - 4pm,Closed,Closed,
VBA108,322,Mobile Vocational Rehabilitation and Employment Services Office,900 Western America Circle,# 104,Mobile,Alabama,36609,251-441-5615,251-441-6897,30.673671,-88.131089,8am - 4pm,8am - 4pm,8am - 4pm,8am - 4pm,8am - 4pm,Closed,Closed,
VBA109,322,Daleville Vocational Rehabilitation and Employment Services Office,807 Donnell Blvd ,# 1,Daleville,Alabama,36322,334-503-9084,334-503-9328,31.314758,-85.706177,8am-4pm,8am-4pm,8am-4pm,8am-4pm,8am-4pm,Closed,Closed,
VBA110,322,Pensacola Vocational Rehabilitation and Employment Services Office,1009 North 12th Avenue,,Pensacola,Florida,32501,850-432-0740,850-469-0316,30.425804,-87.203099,8am - 4pm,8am - 4pm,8am - 4pm,8am - 4pm,8am - 4pm,Closed,Closed,
VBA111,322,Fort Walton Beach Vocational Rehabilitation and Employment Services Office ,411 NE Racetrack Road,,Fort Walton Beach,Florida,32547,850-862-2107,850-862-8667,30.4058,-86.6188,8am - 4pm,8am - 4pm,8am - 4pm,8am - 4pm,8am - 4pm,Closed,Closed,
VBA112,316,Atlanta RO Office  - Vocational Rehabilitation and Employment Services Office,1700 Clairmont Road,,decatur,Georgia,30031-7024,404-929-3152,404-929-3168,33.803714,-84.31124,8 a.m. to 4p.m.,8 a.m. to 4 p.m.,8 a.m. to 4 p.m.,8 a.m. to 4 p.m.,8 a.m. to 4 p.m.,not open,not open,"_
Savannah is 7:30am ��_��__ 4:30pm
��_��__
��_��__"
VBA113,308,Hartford Regional Office,555 Willard Ave,,Newington,CT,6111,860-666-7300,860-667-1062,41.702106,-72.741049,8 am - 4 pm,8 am - 4 pm,8 am - 4 pm,8 am - 4 pm,8 am - 4 pm,Closed,Closed,
VBA114,452,Wichita VA Regional Office,5500 E Kellogg,,Wichita,Kansas,67218,1-800-827-1000,(316) 688-6825,37.681225,-97.27468,8 am - 4 pm,8 am - 4 pm,8:30 am - 4 pm,8 am - 4 pm,8 am - 4 pm,NA,NA,
VBA115,328,Chicago Regional Benefit Office,2122 W. Taylor Street,,Chicago ,Illinois ,60612,800-827-1000,312-980-4503,41.869194,-87.678904,8 am - 4 pm,8 am - 4 pm,8 am - 4 pm,8 am - 4 pm,8 am - 4 pm,Closed,Closed,_The Chicago Regional Office is closed on all Federal holidays.
VBA116,349/28,Vocational Rehabilitation & Employment,Olin E Teague VAMC,1901 Veterans Memorial Dr. ,Temple ,Texas,76504,254-743-1756,254-743-1708,31.077081,-97.347073,8am - 430pm,8am - 430pm,8am - 430pm,8am - 430pm,8am - 430pm,N/A,N/A,
VBA117,349/28,Dallas Vocational Rehabilitation & Employment,Dept of VA VAMC-Bldg 2 Rm 1C409,4500 S. Lancaster Rd. ,Dallas,Texas,75216,214-857-4213,214-302-1496,32.695024,-96.790386,8 am - 430 pm,8 am - 430 ,8 am - 430 ,8 am - 430 ,8 am - 430 ,N/A,N/A,
VBA118,349/28,Tyler Vocational Rehabilitation & Employment,Dept of Veterans Affairs,1700 SSE Loop 323 STE 310,Tyler ,Texas,75701,903-565-0441,903-565-0723,32.308643,-95.279911,8 am - 430 ,8 am - 430 ,8 am - 430 ,8 am - 430 ,8 am - 430 ,N/A,N/A,
VBA119,328,Chicago Regional Office - Lovell Federal Health Care Center Outbased Office,3001 N. Green Bay Road,"Lovell FHCC, Building 133, Rooms 115 D & 115 E",North Chicago,Illinois,60064,224-610-1438 and 224-610-1489 ,224-610-2923,42.755319,-87.821697,8 am - 4:30 pm,8 am - 4:30 pm,8 am - 4:30 pm,8 am - 4:30 pm,8 am - 4:30 pm,Closed,Closed,
VBA120,323,Jackson Regional Benefits Office,1600 E. Woodrow Wilson Ave. ,,Jackson ,MS,39216,601-364-7010,601-364-7007,32.326355,-90.16411,8:00 am - 4:00 pm,8:00 am - 4:00 pm,8:00 am - 4:00 pm,8:00 am - 4:00 pm,8:00 am - 4:00 pm,N/A,N/A,_All times are CST
VBA121,317,West Palm Beach Out Based VBA Office,7305 N. Military Trail,,West Palm Beach,FL,33410,(561) 422-8302,(561) 422-7413,26.784962,-80.112526,8am-4pm,8am-4pm,8am-4pm,8am-4pm,8am-4pm,CLOSED,CLOSED,
VBA122,14927446,TIdewater Community College - Norfolk Campus,350 Granby Street,,Norfolk ,VA,235140,757-822-1085,757-822-1643,36.850891,-76.289444,7:00am - 4:30pm,7:00am - 4:30pm,N/A,N/A,7:00am - 3:30pm,N/A,N/A,"_VSOC at different location W & Th
VSOC is out of office every other Friday"
VBA123,311,Pittsburgh Regional Office,1000 Liberty Avenue,,Pittsburgh,PA,15222,1-800-827-1000,n/a,40.443472,-79.994558,8am-4pm,8am-4pm,8am-4pm,8am-4pm,8am-4pm,closed,closed,
VBA124,N/A,"Tyler, Texas (Outbased Office for the Waco Regional Benefit Office)",1700 SSE Loop 322,Suite 310 (Tanglewood Center),Tyler,TX,75701,"903-565-0441, ext. 1",903-565-0723,31.979171,-102.142874,8 am - 4 pm,8 am - 4 pm,8 am - 4 pm,8 am - 4 pm,8 am - 4 pm,Closed,Closed,_(None)
VBA125,N/A,"Austin, Texas (Outbased Office for the Waco Regional Benefit Office)",7901 Metropolis Drive,Rooms 1G-104 and 1G-105 (Austin VA Outpatient Clinic),Austin,TX,78744,512-823-4582,512-823-4603,30.205292,-97.693652,7:30 am - 4 pm,7:30 am - 4 pm,7:30 am - 4 pm,7:30 am - 4 pm,7:30 am - 4 pm,Closed,Closed,_(None)
VBA126,N/A,"Dallas, Texas (Outbased Office for the Waco Regional Benefit Office)",4500 S. Lancaster Road,"Bldg. 2, Room 1C409 (Dallas VA Medical Center)",Dallas,TX,75216,214-857-4201,214-302-7496,32.695024,-96.790386,8:30 am - 4 pm,8:30 am - 4 pm,8:30 am - 4 pm,8:30 am - 4 pm,8:30 am - 4 pm,Closed,Closed,(None)_
VBA127,N/A,"Amarillo, Texas (Outbased Office for the Waco Regional Benefit Office)",6010 Amarillo Blvd. W.,(Located in the Amarillo VA Medical Center),Amarillo,TX,79106,806-468-1882,806-356-3815,35.18655,-101.916,8 am - 4:30 pm,8 am - 4:30 pm,8 am - 4:30 pm,8 am - 4:30 pm,8 am - 4:30 pm,Closed,Closed,(None)_
VBA128,314,Roanoke Regional Benefit Office,210 Franklin Rd SW,,Roanoke,Virginia ,24011,(800) 827-1000,(540) 597-1792,37.268352,-79.94432,8:30 am to 4:00 pm,8:30 am to 4:00 pm,8:30 am to 4:00 pm,8:30 am to 4:00 pm,8:30 am to 4:00 pm,Closed,Closed,_Closed on Federal holidays
VBA129,N/A,"Fort Worth, Texas (Outbased Office for the Waco Regional Benefit Office)",2201 SE Loop 820,(Located in the Fort Worth VA Outpatient Clinic) ,Fort Worth,TX,76119,817-730-0397,817-730-0785,32.669979,-97.298997,8 am - 4 pm,8 am - 4 pm,8 am - 4 pm,8 am - 4 pm,8 am - 4 pm,Closed,Closed,_(None)
VBA130,314,"Fort Lee, Virginia",Kenner Army Health Climic Attn. MCXD-PAD,700 24th St. Building 8130,Fort Lee,Va.,23801,8047349314,8047349389,37.239408,-77.348795,8 a.m. - 4 p.m.,8 a.m. - 4 p.m.,8 a.m. - 4 p.m.,8 a.m. - 4 p.m.,8 a.m. - 4 p.m.,closed,closed,
VBA131,314,Norfolk Business Office,2551 Eltham Ave,Suite E,Norfolk,Virginia,23513,(757) 858-6154,(757) 858-6146,36.877316,-76.222122,8:00 am to 4:00 pm,8:00 am to 4:00 pm,8:00 am t0 4:00 pm,8:00 am to 4:00 pm,8:00 am to 4:00 pm,closed,closed,Closed on Federal holidays_
VBA132,N/A,"Temple, Texas (Outbased Office for the Waco Regional Benefit Office) ",1901 Veterans Memorial Drive,"Bldg. 2, Room 2B-1036 (Located in the Temple VA Medical Center)",Temple,TX,76504,"254-778-4811, ext. 40989",254-743-0160,31.077081,-97.347073,9 am - 2:30 pm,Closed,9 am - 2:30 pm,Closed,9 am - 2:30 pm,Closed,Closed,_Itinerant service only is provided at this location; and the Legal Administrative Specialist assigned to this location has other duty assignments as well.
VBA133,11904116,Norfolk State University,700 Park Avenue,,Norfolk,VA,23504,757-823-8551,757-823-2078,36.849439,-76.26721,N/A,N/A,7:00 - 4:30pm,7:00 - 4:30pm,N/A,N/A,N/A,"_VSOC at different location M, T & F"
VBA134,314,Saint Leo University,1434 Crossways Blvd,,Chesapeake,VA,23320,757-227-4450,757-227-4505,36.778053,-76.24447,6:45am - 4:15pm,6:45am - 4:15pm,6:45am - 4:15pm,6:45am - 4:15pm,6:45am - 4:15pm,N/A,N/A,_VSOC is out of office every other Monday
VBA135,314,ECPI University,5555 Greenwich Rd,,Virginia Beach,VA,23462,757-217-9459,757-213-3542,36.842669,-76.17891,8:30am - 5:00pm,8:30am - 5:00pm,8:30am - 5:00pm,8:30am - 5:00pm,8:30am - 5:00pm,N/A,N/A,
VBA136,N/A,"Waco, Texas (Outbased Office for the Waco Regional Benefit Office)",4800 Memorial Drive,"Bldg. 2, Room 2B-103A (Located in the Waco VA Medical Center)",Waco,TX,76711,254-297-3552,254-756-7806,31.512878,-97.163809,Closed,9:30 am - 2:30 pm,Closed,9:30 am - 2:30 pm,Closed,Closed,Closed,_Itinerant service only is provided at this location; and the Legal��_��__Administrative Specialist��_��__assigned to��_��__this��_��__location has other duty assignments as well.��_��__
VBA137,314,"Fort Eustis, Virginia",McDonald Army Health Center Building 576,Jefferson Ave. M 19/20,Fort Eustis,Va.,23604,7573147500,7573147775,36.967489,-76.412243,8 a.m. - 4 p.m.,8 a.m. - 4 p.m.,8 a.m. - 4 p.m.,8 a.m. - 4 p.m.,8 a.m. - 4 p.m.,closed,closed,
VBA138,314,Hampton Outbased Office,5200 W. Mercury Blvd,,Hampton,Virginia,23605,(757) 441-6762,(757) 441-3783,37.021895,-76.439552,8:00 am to 4:00 pm ,8:00 am to 4:00 pm ,8:00 am to 4:00 pm ,8:00 am to 4:00 pm ,8:00 am to 4:00 pm ,Closed,Closed,Closed on Federal holidays_
VBA139,314,Old Dominion University,1002 Student Success Center,,Norfolk,VA,23529,757-683-7114,757-683-5920,31.485177,-83.53054,8:00am - 5:30pm,8:00am - 5:30pm,8:00am - 5:30pm,8:00am - 5:30pm,8:00am - 4:30pm,N/A,N/A,_VSOC is out of office every other Friday
VBA140,314,Richmond Outbased Office,McGuire VAMC,Building 507,Richmond ,Virginia,23249,(804) 675-6569,(804) 675-5702,37.940923,-76.840606,8:00 am to 4:00 pm ,8:00 am to 4:00 pm ,8:00 am to 4:00 pm ,8:00 am to 4:00 pm ,8:00 am to 4:00 pm ,Closed,Closed,Closed on Federal holidays_
VBA141,314,Tidewater Community College - VA Beach Campus,1700 College Crescent,,Virginia Beach,VA,23453,757-822-7235,757-822-1629,36.786831,-76.101527,6:15am - 3:45pm,6:15am - 3:45pm,6:15am - 3:45pm,6:15am - 3:45pm,6:15am - 3:45pm,N/A,N/A,_VSOC is out of office every other Monday
VBA142,314,"Liberty University, Virginia",Liberty University - Student Service Center,1971 University Blvd.,Lynchburg,Va.,24515,4345925785,5405971791,37.352613,-79.179061,8 a.m. - 5 p.m.,8 a.m.  - 5 p.m.,8 a.m. - 5 p.m.,8 a.m. - 5 p.m.,8 a.m. - 5 p.m.,closed,closed,
VBA143,349,Waco Regional Benefit Office,701 Clay Avenue,One Veterans Plaza,Waco,TX,76799,1-800-827-1000,254-299-9541,31.551544,-97.129242,8:30 am - 4 pm,8:30 am - 4 pm,8:30 am - 4 pm,8:30 am - 4 pm,8:30 am - 4 pm,Closed,Closed,_(None)
VBA144,314,Tidewater Community College - Portsmouth Campus,120 Campus Drive,,Portsmouth,VA,23701,757-822-1122,757-822-2919,43.042682,-70.777997,8:30am - 6:00pm,8:30am - 6:00pm,8:30am - 6:00pm,N/A,N/A,N/A,N/A,_VSOC at different location Th-F
VBA145,314,Tidewater Community College - Chesapeake Campus,1428 Cedar Rd,,Chesapeake,VA,23322,757-822-5117,757-822-5122,36.72647,-76.293169,N/A,N/A,N/A,8:30am - 6:00pm,8:30am - 5:00pm,N/A,N/A,_VSOC at different location M-W
VBA146,314,Langley IDES Site,"633rd/MEB 77 Nealy Ave, Bldg 266, MEB",,Hampton,Virginia,23665,(757) 225-6959,(757) 225-5842,37.074197,-76.357235,8: 00 am to 4:00 pm ,8: 00 am to 4:00 pm ,8: 00 am to 4:00 pm ,8: 00 am to 4:00 pm ,8: 00 am to 4:00 pm ,Closed,Closed,Closed on Federal holidays_
VBA147,314,Fort Lee IDES Site,"700 24th Street, Bldg 8130","2nd Floor, Room 210",Fort Lee,Virginia,23801,(804) 734-9874,(804) 734-9389,37.2469,-77.3344,8:00 am to 4:00 pm ,8:00 am to 4:00 pm ,8:00 am to 4:00 pm ,8:00 am to 4:00 pm ,8:00 am to 4:00 pm ,Closed,Closed,Closed on Federal holidays_
VBA148,314,Fort Eustis IDES Site,"McDonald Army Health Center, IDES Bldg",579 Jefferson Ave,Fort Eustis,Virginia,23604,(757) 314-7789,(757) 314-7573,36.967489,-76.412243,8:00 am to 4:00 pm,8:00 am to 4:00 pm,8:00 am to 4:00 pm,8:00 am to 4:00 pm,8:00 am to 4:00 pm,Closed,Closed,_Closed on Federal holidays
VBA149,314,Portsmouth IDES Site,620 John Paul Jones Circle,"Bldg 3, 7th Floor, Room 104",Portsmouth,Virginia,23708,(757) 953-9252,(757) 953-1465,36.843805,-76.304725,7:00 am to 3:30 pm ,7:00 am to 3:30 pm ,7:00 am to 3:30 pm ,7:00 am to 3:30 pm ,7:00 am to 3:30 pm ,Closed ,Closed ,_Closed on Federal holidays
VBA150,314,Portsmouth Naval Hospital,620 John Paul Blvd,,Portsmouth,VA,23708,757-953-5008,757-953-0857,36.52063,-79.732422,7:30am - 5:00pm,N/A,7:30am - 5:00pm,N/A,7:30am - 4:00pm,N/A,N/A,_IDES VRC works at different location on Tuesday and Thursday
VBA151,N/A,"El Paso, Texas (Outbased Office for the Waco Regional Benefit Office)",5001 N. Piedras Street,(Located in the El Paso VA Outpatient Clinic),El Paso,TX,79930,"915-564-6100, ext. 7150",915-564-7883,31.820673,-106.461457,8 am - 3:45 pm,8 am - 3:45 pm,8 am - 3:45 pm,8 am - 3:45 pm,8:30 am - 4:15 pm,Closed,Closed,_(None)
VBA152,316,Atlanta Regional Benefit Office,1700 Clairmont Road,,Decatur,Georgia,30033,800-827-1000,404-929-5819,33.803714,-84.31124,8 am - 4:30 pm,8 am - 4:30 pm,8 am - 4:30 pm,8 am - 4:30 pm,8 am - 4:30 pm,N/A,N/A,
VBA153,322,Northwest Florida State College - Vet Success on Campus,Student Services Center (SSC 231),100 College Blvd,Niceville,Florida,32578,850-678-5111 ext 6752,850-729-4912,30.536495,-86.47197,7:30am - 4:00pm,7:30am - 4:00pm,7:30am - 4:00pm,7:30am - 4:00pm,7:30am - 4:00pm,Closed,Closed,
VBA154,322,University of West Florida - Vet Success on Campus,Military and Veterans Resource Center,11000 University Pkwy,Pensacola,Florida,32514,850-474-2550,850-474-2671,30.549086,-87.215283,7:30am - 4pm,7:30am - 4pm,7:30am - 4pm,7:30am - 4pm,7:30am - 4pm,Closed,Closed,
VBA155,322,University of Alabama - Vet Success on Campus,301 7th Ave,Houser Hall Ste 3000 Box 870251,Tuscaloosa,Alabama,35487,205-348-0983,205-348-5804,33.83582,-86.253024,8am - 4pm,8am - 4pm,8am - 4pm,8am - 4pm,8am - 4pm,Closed,Closed,
VBA156,322,Troy University - Vet Success on Campus,122 Trojan Center,,Troy,Alabama,36082,334-808-6624,None,31.820073,-85.972159,7:30am - 4pm,7:30am - 4pm,7:30am - 4pm,7:30am - 4pm,7:30am - 4pm,Closed,Closed,
VBA157,313,Baltimore Regional Office,"31 Hopkins Plaza, Ste 2117",,Baltimore ,Maryland,21201,410-230-4510,410-230-4516,39.289194,-76.616452,8 am - 4:30 pm,8 am - 4:30 pm,8 am - 4:30 pm,8 am - 4:30 pm,8 am - 4:30 pm,closed,closed,
VBA158,Bldg 813,FT Carson IDES and BDD Site,1626 O'Connell Blvd.,,FT Carson,CO ,80913,719-526-1818,None,38.741387,-104.793087,7:30 am - 3:00 pm,7:30 am - 3:00 pm,7:30 am - 3:00 pm,7:30 am - 3:00 pm,7:30 am - 3:00 pm,None,None,
VBA159,328,Chicago Regional Office - Belleville VR&E Outbased Location,521 W. Main Street,Suite 105,Belleville,Illinois,62220,618-239-0087,618-239-0099,38.514453,-89.991357,7 am - 5:30 pm,7 am - 5:30 pm,7 am - 5:30 pm,7 am - 5:30 pm,7 am - 3:30 pm,Closed,Closed,
VBA160,328,"Chicago Regional Office - Davenport, Iowa VR&E Outbased Office",1910 East Kimberly Road,Suite 313,Davenport,Iowa,52807,"563-391-1058, Ext. 15",563-391-1311,41.558235,-90.548389,7 am - 3:30 pm,7 am - 3:30 pm,7 am - 3:30 pm,7 am - 3:30 pm,7 am - 3:30 pm,Closed,Closed ,
VBA161,349,Austin-1 VR&E Office,6448 Hwy 290,Suite C107,Austin,Texas,78723,512-206-0857,521-206-0858,30.322231,-97.695731,8am - 4:30pm,8am - 4:30pm,8am - 4:30pm,8am - 4:30pm,8am - 4:30pm,closed,closed,
VBA162,328,Chicago Regional Office - Peoria VR&E Outbased office,406 Elm Street,Illinois Dept. of Employment Security (IDES) Building ,Peoria,Illinois,61605,309-637-3074,309-637-3552,40.686702,-89.60061,8 am - 5 pm,8 am - 5 pm,8 am - 5 pm,8 am - 5 pm,8 am - 5 pm,Closed,Closed,
VBA163,349,Austin-2 VR&E Office (within VAOPC),7901 Metropolis Drive,,Austin,Texas,78744,"512-823-4504 for Leah Augustine-Veal, VRC; 512-823-4597 for Allisa Shepard, VRC; 512-823-4344 for Pamala Charles, VRC",512-823-4133,30.205292,-97.693652,7am - 4:30pm,7am - 4:30pm,7am - 4:30pm,7am - 4:30pm,7am - 4:30pm,closed,closed,
VBA164,328,Chicago Regional Office - Urbana VR&E Outbased office,908 W. Nevada Street,"Univ. of Ill.  Center for Wounded Veterans in Higher Educ., Room 1009",Urbana,Illinois,61801,217-244-3701,217-244-9008,40.106265,-88.220153,7:30 am - 4 pm,7:30 am - 4 pm,7:30 am - 4 pm,7:30 am - 4 pm,7:30 am - 4 pm,Closed,Closed,
VBA165,314,Langley Air Force Base ,633 FSS/FSFR,"45 Nealy Avenue, Suite B Room 231",Langley AFB,VA,23665,N/A,N/A,37.068798,-76.362631,N/A,8am-4pm,N/A,8 am-4pm,N/A,N/A,N/A,_VRC works on base and at Hampton outbased VR&E office.��_��__ Phone lines are being updated at this time.
VBA166,349,Dallas VR&E Office,4500 Lancaster Road,"VAMC-Bldg 2, Rm 1C409, VR&E",Dallas,Texas,75216,214-857-4213,214-302-1496,32.695024,-96.790386,8:30am - 4pm,8:30am - 4pm,8:30am - 4pm,8:30am - 4pm,8:30am - 4pm,closed,closed,
VBA167,328,Chicago Regoinal Office - Belleville VR&E Outbased Office,2500 Carlyle Avenue,Southwestern Illinois College/Veterans & Career Servcies,Belleville,Illinois,62221,618-222-5554,618-236-7963,38.515739,-89.924083,8 am - 4:30 pm,8 am - 4:30 pm,8 am - 4:30 pm,8 am - 4:30 pm,8 am - 4:30 pm,Closed,Closed,On Fridays - Southwestern College (SWIC)��_��__building open only until 4:00 pm_
VBA168,349,Temple VR&E Office,1901 Veterans Memorial Drive,"Olin Teague VAMC, Bldg T-117, VR&E (28)",Temple,Texas,76504,254-743-1756,254-743-1708,31.077081,-97.347073,8am - 4:30pm,8am - 4:30pm,8am - 4:30pm,8am - 4:30pm,8am - 4:30pm,closed,closed,_
VBA169,349,Fort Hood VR&E Office,Battalion Ave,"Copeland Soldiers Service Center, Room A313D, Bldg 18010",Fort Hood,Texas,76544,254-288-0011,254-288-2198,31.13785,-97.751427,8am - 4:30pm,8am - 4:30pm,8am - 4:30pm,8am - 4:30pm,8am - 4:30pm,closed,closed,
VBA170,347,Boise Regional Office,444 W. Fort Street,,Boise ,Idaho,83702,1-800-827-1000,208-429-2281,43.618158,-116.194181,8am-4:30pm,8am-4:30pm,8am-4:30pm,8am-4:30pm,8am-4:30pm,Closed,Closed,
VBA171,347,Boise VA VetSuccess on Campus (VSOC),1910 University Drive,Boise State University Veterans Center,Boise,ID,83725,208-426-3744,208-426-4312,43.605345,-116.206303,8:30 a.m. - 5 p.m.,8:30 a.m. - 5 p.m.,8:30 a.m. - 5 p.m.,8:30 a.m. - 5 p.m.,8:30 a.m. - 5 p.m.,Closed,Closed,
VBA172,347,Boise Vocational Rehabilitation Outbased Office,1651 Alvin Ricken Dr,Suite 106,Pocatello,Idaho,83201,208-429-2168,208-233-4471,42.869259,-112.410449,8:00 a.m. - 4:30 p.m.,8:00 a.m. - 4:30 p.m.,8:00 a.m. - 4:30 p.m.,8:00 a.m. - 4:30 p.m.,8:00 a.m. - 4:30 p.m.,Closed,Closed,
VBA173,349/28,Vocational Rehabilitation & Employment 0utbaced VSOC AUSTIN COMMUNITY COLLEGE  ,6001 Airport Blvd ,Suite 2280-B,Austin,TX,78752,512-223-7041 ,FAX: n/a,30.326096,-97.712974,8 am - 430 pm,8 am - 430 pm,8 am - 430 pm,8 am - 430 pm,8 am - 430 pm,n/a,n/a,
VBA174,349/28,Vocational Rehabilitation & employment outbased-VSOC- CENTRAL TX COLLEGE OFFICE  ,6200 W Central Texas Expressway,Bldg 118,Killeen,TX ,76540,254 501-3094,FAX: n/a,31.093621,-97.726452,8 am 430 pm,8 am 430 pm,8 am 430 pm,8 am 430 pm,8 am 430 pm,n/a,n/a,
VBA175,318,"Winston Salem Regional Office, Vocational Rehabilitation and Employment Division","251 N Main Street,",Suite 426,Winston Salem,NC,27155,336-714-6099,336-631-5054,36.096945,-80.243311,8 am - 4 pm,8 am - 4 pm,8 am - 4 pm,8 am - 4 pm,8 am - 4 pm,Closed,Closed,
VBA176,n/a,Austin Community College VetSuccess on Campus VR&E Office,6001 Airport Blvd,Suite 2280-B,Austin,Texas,78752,512-223-7041,512-419-9961,30.326096,-97.712974,8am - 4pm,8am - 4pm,8am - 4pm,8am - 4pm,8am - 4pm,closed,closed,
VBA177,349/28,Vocational Rehabilitation & Employment-VSOC- TX A&M CENTRAL TEXAS OFFICE  ,"Texas A&M University-Central Texas, 1001 Leadership PL  ",RM 221E,Killeen,TX,76549,254-519-5404       ,254-519-5420,31.116434,-97.79855,8 am - 430 pm,8 am - 430 pm,8 am - 430 pm,8 am - 430 pm,8 am - 430 pm,n/a,n/a,
VBA178,n/a,Central Texas College VetSuccess on Campus VR&E Office,6200 W Central Texas Expressway,Bldg 118,Killeen,Texas,76540,254-501-3094,n/a,31.093621,-97.726452,8am - 4:30pm,8am - 4:30pm,8am - 4:30pm,8am - 4:30pm,8am - 4:30pm,closed,closed,
VBA179,349/29,  TX A&M COLLEGE STATION OFFICE   ,"Koldus Student Services Bldg, Ste 112, , , ","Veteran Resource & Support Center, MS 1256 TAMU",College Station,TX ,77843,254-519-5404       ,254-519-5420,30.6263,-96.3347,8 am - 430 pm,8 am - 430 pm,8 am - 430 pm,8 am - 430 pm,8 am - 430 pm,n/a,n/a,
VBA180,n/a,TX A&M University College Station VetSuccess on Campus VR&E Office,MS 1256 TAMU,"Koldus Student Services Bldg, Suite 112, Veteran Resource & Support Center",College Station,TX,77843,979-458-3886,979-458-1691,30.6263,-96.3347,8am - 4:30pm,8am - 4:30pm,8am - 4:30pm,8am - 4:30pm,8am - 4:30pm,closed,closed,
VBA181,n/a,University of Texas at Arlington VetSuccess on Campus VR&E Office,406 Summit Ave,"Veterans Assistance Center, UTA, PO Box 19345",Arlington,Texas,76019,817-272-9882,817-272-9883,32.733733,-97.122154,8:15am - 4:45pm,8:15am - 4:45pm,8:15am - 4:45pm,8:15am - 4:45pm,8:15am - 4:45pm,closed,closed,
VBA182,349/28,Vocational Rehabilitation & Employment-VSOC-TARRANT CNTY COLLEGE - S Campus   ,5301 Campus Dr,"Bldg SERS, Rm 1104-S",Ft. Worth  ,TX ,76119-5926   ,817-515-4076 ,n/a,31.9871,-102.070365,8 am - 430 pm,8 am - 430 pm,8 am - 430 pm,8 am - 430 pm,8 am - 430 pm,n/a,n/a,
VBA183,349/28,Vocational Rehabilitation & Employment-VSOC-TARRANT CNTY COLLEGE - NE Campus   ,828 W. Harwood Rd,Room NADM 1201A,Hurst,TX ,76054-3299 ,817-515-6319       ,n/a,32.847552,-97.190078,800 am - 430 pm,800 am - 430 pm,800 am - 430 pm,800 am - 430 pm,800 am - 430 pm,n/a,n/a,
VBA184,349/28,Vocational Rehabilitiation & Employment-VSOC-UNIVERSITY TX at ARLINGTON OFFICE   ," Veterans Assistance Center, University of Texas at Arlington","PO Box 19345, 406 Summit Ave",Arlington,TX      ,76019,817-272-9882 ,n/a,32.750091,-97.3247,8 am - 430 pm,8 am - 430 pm,8 am - 430 pm,8 am - 430 pm,8 am - 430 pm,n/a,n/a,
VBA185,n/a,Texas A&M Central Texas VetSuccess on Campus VR&E Office,1001 Leadership PL,RM 221E,Killeen,Texas,76549,254-519-5404,254-519-5420,31.047059,-97.766385,TBA,TBA,TBA,TBA,TBA,CLOSED,CLOSED,
VBA186,n/a,Tarrant County College South VetSuccess on Campus VR&E Office,5301 Campus Drive,"Bldg SERS, Rm 1104-S",Fort Worth,Texas,76119-5926,817-515-4076,n/a,32.667467,-97.29035,8am - 4:30pm,8am - 4:30pm,8am - 4:30pm,8am - 4:30pm,8am - 4:30pm,closed,closed,
VBA187,N/A,Tarrant County College NE VetSuccess on Campus VR&E Office,828 W Harwood Road,Room NADM 1201A,Hurst,Texas,76054-3299,817-515-6319,n/a,32.847552,-97.190078,8am - 4:30pm,8am - 4:30pm,8am - 4:30pm,8am - 4:30pm,8am - 4:30pm,closed,closed,
VBA188,313,"Baltimore Regional Office, Specially Adapted Housing ",31 Hopkins Plaza,,Baltimore,Maryland,21201,410-230-4500,410-230-4564,39.289194,-76.616452,8:30am - 4:30pm,8:30am - 4:30pm,8:30am - 4:30pm,8:30am - 4:30pm,8:30am - 4:30pm,Closed,Closed,
VBA189,327,"Louisville Regional Office, Specially Adapted Housing Office","321 West Main St, Suite 390",,Louisville,Kentucky,40202,"502-566-4484, 502-566-4490",502-587-3059,38.256473,-85.755213,8:30am - 4:30pm,8:30am - 4:30pm,8:30am - 4:30pm,8:30am - 4:30pm,8:30am - 4:30pm,Closed,Closed,
VBA190,372,"National Capital Region Benefits Office, Specially Adapted Housing Office","1722 I Street, NW",,Washington,DC,20421,"202-530-9010, 202-530-9372, 202-530-9405",202-530-9046,38.901118,-77.040792,8:30am - 4:30pm,8:30am - 4:30pm,8:30am - 4:30pm,8:30am - 4:30pm,8:30am - 4:30pm,Closed,Closed,
VBA191,575,Grand Junction VA Medical Center,2121 NORTH AVE,,GRAND JUNCTION,CO,81501,970-242-0731,NA,39.076386,-108.540308,7:00 AM - 3:30 PM,7:00 AM - 3:30 PM,7:00 AM - 3:30 PM,7:00 AM - 3:30 PM,7:00 AM - 3:30 PM,NA,NA,_Vocational Rehabilitation Counselor on-site at the Grand Junction VA Medical Center
VBA192,554GE,PFC FLOYD K. LINDSTROM VA CLINIC,3141 CENTENNIAL BLVD,,COLORADO SPRINGS,CO,80907,719-327-5660,NA,38.895362,-104.850198,8:00 AM - 3:00 PM,8:00 AM - 3:00 PM,8:00 AM - 11:30 AM,8:00 AM - 3:00 PM,8:00 AM - 3:00 PM,NA,NA,CLOSED WEDS. AFTERNOONS FOR STAFF TRAINING_
VBA193,339,DENVER VA REGIONAL OFFICE,155 VAN GORDON ST,,LAKEWOOD,CO,80228,1-800-827-1000,303-914-5915,39.716102,-105.138238,8:00 AM - 3:45 PM,8:00 AM - 3:45 PM,8:00 AM - 11:30 AM,8:00 AM - 3:45 PM,8:00 AM - 3:45 PM,NA,NA,CLOSED WEDS. AFTERNOON FOR STAFF TRAINING_
VBA194,442,CHEYENNE VA MEDICAL CENTER,2360 PERSHING BLVD,,CHEYENNE,WY,82001,1-800-827-1000,NA,41.148254,-104.785617,"9-11:30 AM, 1-3:30 PM","9-11:30 AM, 1-3:30 PM","9-11:30 AM, 1-3:30 PM","9-11:30 AM, 1-3:30 PM","9-11:30 AM, 1-3:30 PM",NA,NA,CLOSED EVERY DAY AT��_��__11:30 AM - 1:00 PM FOR STAFF TRAINING_
VBA195,666,SHERIDAN VA MEDICAL CENTER,1898 FORT ROAD,,SHERIDAN,WY,82801,307-672-3473,NA,44.829615,-106.988382,7:30 AM - 4:00 PM,7:30 AM - 4:00 PM,7:30 AM - 4:00 PM,7:30 AM - 4:00 PM,7:30 AM - 4:00 PM,NA,NA,
VBA196,1,St. Thomas Community-Based Outpatien Clinic ,Medical Foundation Bulding,Suite 101,St. Thomas,VI,802,340-776-7072,340-774-2069,18.33,-64.92,8:00am to 4:00pm,8:00am to 4:00pm,8:00am to 4:00pm,8:00am to 4:00pm,8:00am to 4:00pm,NA,NA,
VBA197,2,Mayaguez Oupatient Clinic,175 Algarrobo Ave,,Mayaguez,PR,682,787-834-6900,N/A,31.889426,-116.587956,7:30 am 4:00pm,7:30 am 4:00pm,7:30 am 4:00pm,7:30 am 4:00pm,7:30 am 4:00pm,7:30 am 4:00pm,7:30 am 4:00pm,
VBA198,3,Arecibo Commnity-Based Outpatiet Clinic,Victor Rojas II / Zona Industrial ,,Arecibo,PR,612,787-641-7582 X 28689,787-816-1824,18.47525,-66.720963,8:00am to 4:30pm,8:00am to 4:30pm,8:00am to 4:30pm,8:00am to 4:30pm,8:00am to 4:30pm,N/A,N/A,
VBA199,4,VA Euripides Rubio Clinic-Ponce Outpatient Clinic,Paseo Del Veterano #1010,,Ponce,PR,00716-2001,787-812-3030,787-651-4317,33.66784,-80.446232,7:30am-40:O0pm,7:30am-40:O0pm,7:30am-40:O0pm,7:30am-40:O0pm,7:30am-40:O0pm,N/A,N/A,
VBA200,1,Medical Foundation Building ,Medical Foundation Building ,Suite 101,St. Thomas,VI,802,340-776-7072,340-774-2069,18.33,-64.92,8:00am-4:30pm,8:00am-4:30pm,8:00am-4:30pm,8:00am-4:30pm,8:00am-4:30pm,NA,NA,
VBA201,315,"Huntington Regional Office, Specially Adapted Housing Office",640 Fourth Ave,,Huntington,West Virginia,25701,"304-399-9251, 304-399-9482",304-399-9184,38.420306,-82.447869,8:30am - 4:30pm,8:30am - 4:30pm,8:30am - 4:30pm,8:30am - 4:30pm,8:30am - 4:30pm,Closed,Closed,
VBA202,372,Andrews Air Force Base Malcolm Grow Medical Center Bldg,1050 W Perimeter Road,,Andrews Air Force ,MD,20762,202-460-9406,202-460-9094,38.80738,-76.896604,8 am - 4 pm,8 am - 4 pm,8 am - 4 pm,8 am - 4 pm,Closed,Closed ,Closed,
VBA203,none,Marine Corp Base Camp Pendleton,Community Services Building 13150,,Camp Pendleton,CA ,92055,760-725-0378,760-385-4551,33.309471,-117.314477,8am - 4pm,8am - 4pm,8am - 4pm,8am - 4pm,8am - 4pm,closed,closed,
VBA204,none,Marine Corp Base Camp Pendleton Wounded Warrior Battalion,Santa Margarita Road Bldg H-49,,Camp Pendleton,CA,92055,760-870-4428,none,33.3146,-117.316,8am - 4pm,8am - 4pm ,8am - 4pm ,8am - 4pm ,8am - 4pm ,closed,closed,
VBA205,372,Fort Belvoir Wariror Pavilion Bldg,9501 Farrell Road,808N Suite NS-104,Fort Belvoir,VA,22060,703-805-0548,703-805-8089,38.701014,-77.138087,8 am - 4 pm,8 am - 4 pm,8 am - 4 pm,8 am - 4 pm,closed,Closed,Closed,
VBA206,none,Marine Corp Air Station Miramar,MCAS Miramar Bldg 5305,,San Diego ,CA,92145,858-689-2241,none,32.88,-117.13,8am - 4pm ,8am - 4pm,8am - 4pm,8am - 4pm,8am - 4pm,closed ,closed,
VBA207,372,Walter Reed National Miltary Medical Center,8901 Rockville Pike Bldg 147,,Bethesda,MD,20889,301-400-2465,N/A,39.000913,-77.093666,8 am - 4 pm,8 am - 4 pm,8 am - 4 pm,8 am - 4 pm,Closed,Closed,Closed,
VBA208,none,Laguna Hills Community Based Outpatient Clinic,25292 Mcintyre Street,,Laguna Hills,CA,92653,562-826-8551,949-462-0793,33.596097,-117.679793,8am - 4pm,8am - 4pm,8am - 4pm,8am - 4pm,8am - 4pm,closed,closed,
VBA209,none,Naval Base San Diego ,3115 Dolphin Alley Bldg 270,,San Diego,CA,92136,619-230-0393,none,37.613807,-122.401444,730am - 4pm,730am - 4pm,730am - 4pm,730am - 4pm,730am - 4pm,closed,closed,
VBA210,318,Winston Salem Veterans Benefits Regional Office,251 N. Main Street,,Winston Salem,North Carolina,27155,336-251-0703,336-631-5154,36.096945,-80.243311,8am - 4pm,8am - 4pm,8am - 4pm,8am - 4pm,8am - 4pm,Closed,Closed,
VBA211,372,National Capitol Region Benefits Office,1722 I Street Northwest,,Washington,DC,20421,202-530-9162,202-530-9094,38.901118,-77.040792,8 am - 4 pm,8 am - 4 pm,8 am - 4 pm,8 am - 4 pm,8 am - 4 pm ,Closed,Closed,
VBA212,none,Marine Corp Base Camp Pendleton IDES ,Santa Margarita Road Bldg H-49,,Camp Pendleton ,CA,92055,760-725-0378,none,33.3146,-117.316,8am - 4pm,8am - 4pm,8am - 4pm,8am - 4pm,8am - 4pm,closed,closed,
VBA213,none,Naval Hospital San Diego ,Balboa Naval Hospital Bldg 1,,San Diego,CA,92134,619-532-6635,619-532-9565,32.724758,-117.143898,8am - 4pm ,8am - 4pm,8am - 4pm,8am - 4pm,8am - 4pm,closed,closed,
VBA214,none,Naval Hospital San Diego ,Balboa Naval Hospital Bldg 26,,San Diego,CA,92134,619-532-5122,619-532-8659,32.724758,-117.143898,8am - 4pm,8am - 4pm,8am - 4pm ,8am - 4pm ,8am - 4pm ,closed,closed,
VBA215,none,Marine Corp Recruit Depot (MCRD),4025 Tripoli Avenue Bldg 14,,San Diego,CA ,92140,619-524-8233,none,37.708898,-122.466575,8am - 4pm ,8am - 4pm ,8am - 4pm ,8am - 4pm ,8am - 4pm ,closed,closed,
VBA216,none,Veterans Affairs Medical Center La Jolla,3350 La Jolla Village Drive,,San Diego,CA,92161,858-642-8987,none,32.873942,-117.23145,8am - 4pm ,8am - 4pm ,8am - 4pm,8am - 4pm ,8am - 4pm ,closed,closed,
VBA217,459,Honolulu Regional Office,459 Patterson Road,E-wing,Honolulu,HI,96819,1-800-827-1000,808-433-0478,21.36113,-157.888733,8am-4pm,8am-4pm,8am-4pm,8am-4pm,8am-4pm,Closed,Closed,_We are not open Saturday and Sunday
VBA218,459,"University of Manoa, Honolulu",2600 Campus Road,QLC Room 310,Honolulu,Hawaii,96822,808-956-2192,none,21.30015,-157.81855,Closed,8:30am-5:00pm,Closed,Closed,8:30am-5:00pm,Closed,Closed,_VSOC is outbased at this location 2 days a week.
VBA219,459,Leeward Community College Veteran Resource Center,96-045 Ala Ike St.,,Pearl City,Hawaii,96782,808-455-0313,none,21.394985,-157.985654,8:30am - 5:00pm,closed,8:30am - 5:00pm,Closed,8:30am - 5:00pm,Closed,Closed,VSOC at this location 3 days a week._
VBA220,459,"Hawaii Pacific University, Honolulu","1164 Bishop St., #912",,Honolulu,HI,96813,808-544-1123,808-544-0285,21.308057,-157.862145,8:15am-4:15pm,8:15am-4:15pm,8:15am-4:15pm,8:15am-4:15pm,8:15am-4:15pm,closed,closed,
VBA221,459,"US Army Garrison, Schofield Barracks ACAP",673 Ayers Ave.,"Building 750, Room 127",Schofield Barracks,Hawaii,96857,808-655-1043,none,21.49,-158.05,7:30am-4:00pm,7:30am-4:00pm,7:30am-4:00pm,7:30am-4:00pm,7:30am-4:00pm,closed,closed,
VBA222,459,"US Army Garrison, Schofield Barracks, Soldier & Family Assistance Center",371 Brannon Road,"Building 663, Room 112",Schofield Barracks,Hawaii,96857,808-655-9969,none,21.49,-158.05,7:30am-4:00pm,7:30am-4:00pm,7:30am-4:00pm,7:30am-4:00pm,7:30am-4:00pm,Closed,Closed,
VBA223,459,"Tripler Army Medical Center, Honolulu",1 Jarrett White Road,,Honolulu,Hawaii,96819,808-433-1383,808-433-0382,21.36011,-157.889482,7:30am - 4:00pm,7:30am - 4:00pm,7:30am - 4:00pm,7:30am - 4:00pm,7:30am - 4:00pm,Closed,Closed,
VBA224,459,Maui Community Based Outpatient Clinic,203 Ho'ohana St.,,Kahului,HI,96732,808-873-9426,808-877-3145,20.88719,-156.463213,7:30am-4:00pm,7:30am-4:00pm,7:30am-4:00pm,7:30am-4:00pm,7:30am-4:00pm,Closed,Closed,
VBA225,459,Guam Benefits Office,770 East Sunset Blvd.,Suite 165,Tamuning,Guam,96913,671-648-0090,671-648-0096,30.431509,-86.633086,8:00am-4:00pm,8:00am-4:00pm,8:00am-4:00pm,8:00am-4:00pm,8:00am-4:00pm,Closed,Closed,
VBA226,314,Norfolk Fleet and Family Services,7928 14th Street,Room 274,Norfolk,Virginia,23505,757 322-1180,N/A,42.504365,-96.342712,8am - 4pm,8am - 4pm,8am - 4pm,8am - 4pm,8am - 4pm,Closed,Closed,
VBA227,318,Winston Salem Regional Office Vocational Rehabilitation Employment Division - Fort Bragg Outbased Office,Bldg 4-2843 Normandy Street,Suite 100,Fort Bragg,NC,28310,910-396-8611,910-396-4679,35.139,-79.006,8 am - 4 pm,8 am - 4 pm,8 am - 4 pm,8 am - 4 pm,8 am - 4 pm,Closed,Closed,
VBA228,318,Winston Salem Regional Office Vocational Rehabilitation and Employment Division Camp Lejeune Outbased Office,#14 Julian Steve C. Smith Blvd,"Bldg H-14, 1st Floor",Camp Lejeune,NC,28547,910-449-6963,910-449-6964,34.67,-77.35,8 am - 4 pm,8 am - 4 pm,8 am - 4 pm,8 am - 4 pm,8 am - 4 pm,Closed,Closed,
VBA229,318,Winston Salem Regional Office Vocational Rehabilitation and Employment Division MCAS New River Outbased Office,MCAS New River,"Bldg 212, Room 123",Jacksonville,NC,28540,910-449-6963,910-449-6964,36.2176,-81.6401,8 am - 4 pm,8 am - 4 pm,8 am - 4 pm,8 am - 4 pm,8 am - 4 pm,Closed,Closed,
VBA230,318,Winston Salem Regional Office Vocational Rehabilitation and Employment Division East Carolina University Outbased Office,East Carolina University,"Brewster, D-107",Greenville,NC,27858,910-449-6963,910-449-6964,35.61,-77.4,8 am - 4 pm,8 am - 4 pm,8 am - 4 pm,8 am - 4 pm,8 am - 4 pm,Closed,Closed,
VBA231,317,Broward County VA Outpatient Clinic VR&E,9800 W. Commercial Blvd.,,Sunrise,FL,33351,954-475-5500 X8672,954-625-8754,26.192741,-80.281235,8am - 4:30pm,8am - 4:30pm,8am - 4:30pm,8am - 4:30pm,8am - 4:30pm,CLOSED,CLOSED,
VBA232,317,Fort Myers VR&E Office,11934 Fairway Lakes Drive #3,,Fort Myers,FL,33913,239-672-8693,239-672-8695,26.571184,-81.75127,8am -4:30pm,8am -4:30pm,8am -4:30pm,8am -4:30pm,8am -4:30pm,CLOSED,CLOSED,
VBA233,317,Naples VR&E Office,"2707 Horseshoe Drive South, Suite 204",,Naples,FL,34104,239-403-2383,239-403-2388,26.161828,-81.772053,closed,closed,8am - 4:30pm,closed,closed,CLOSED,CLOSED,
VBA234,317,Jacksonville VR&E Office,7828 Baymeadows Way Suite 120B,,Jacksonville,FL,32256,904-731-0565,904-731-0595,30.227329,-81.581387,8 am - 4:30 pm,8 am - 4:30 pm,8 am - 4:30 pm,8 am - 4:30 pm,8 am - 4:30 pm,CLOSED,CLOSED,
VBA235,317,Gainesville VR&E Office,105 NW 75th Street Suite 2,,Gainesville,FL,32607,352-331-9343,352-331-1848,29.653831,-82.421726,8 am - 3:30pm,8 am - 3:30pm,8 am - 3:30pm,8 am - 3:30pm,8 am - 3:30pm,CLOSED,CLOSED,
VBA236,317,Tallahassee VR&E Office,1311 Executive Center Drive Ellis Building Suite 100D,,Tallahassee,FL,32399,850-422-2427,850-422-2485,30.426498,-84.234768,8 am - 4:30pm,8 am - 4:30pm,8 am - 4:30pm,8 am - 4:30pm,8 am - 4:30pm,CLOSED,CLOSED,
VBA237,317,Sarasota VR&E Division,"2055 Wood Street, Suite 207",,Sarasota,FL,34237,941-366-8945,941-366-8943,27.32903,-82.528968,7am - 3:30pm,7am - 3:30pm,7am - 3:30pm,7am - 3:30pm,7am - 3:30pm,CLOSED,CLOSED,
VBA238,317,Tampa Polytrauma VR&E Office,13000 Bruce B Downs Blvd. PMRS-117,,Tampa,FL,33612,813-972-2000 X4793,813-979-3631,28.064647,-82.427551,6am - 2:30pm,6am - 2:30pm,6am - 2:30pm,6am - 2:30pm,6am - 2:30pm,CLOSED,CLOSED,
VBA239,317,Tampe Workforce Office,"9215 N. Florida Avenue, Suite 101",,Tampa,FL,33612,813-930-7689,813-930-7483,28.033741,-82.457338,7:30am - 4pm,7:30am - 4pm,7:30am - 4pm,7:30am - 4pm,7:30am - 4pm,CLOSED,CLOSED,
VBA240,317,Cocoa VR&E Office,1970 Michigan Avenue Suite I7,,Cocoa,FL,32922,321-433-1761,321-433-1996,28.38982,-80.753612,8 am - 4:30pm,8 am - 4:30pm,8 am - 4:30pm,8 am - 4:30pm,8 am - 4:30pm,CLOSED,CLOSED,
VBA241,362,Houston Regional Benefit Office,6900 Almeda Road,,Houston,Texas,77030,713-383-1999/1985,713-383-2605/1984,29.699088,-95.386922,7:30 am - 4pm,7:30 am - 4pm,7:30 am - 4pm,7:30 am - 4pm,7:30 am - 4pm,n/a,n/a,
VBA242,317,Orlando VR&E/ VSC Center,"1000 Legion Place, Suite 1500",,Orlando,FL,32801,407-835-5600 ,407-835-5610,28.558839,-81.379421,8am - 4:30pm,8am - 4:30pm,8am - 4:30pm,8am - 4:30pm,8am - 4:30pm,CLOSED,CLOSED,
VBA243,362,Houston Regional Loan Center,6900 Almeda Road,,Houston,Texas,77030,888-232-2571,713-383-1849,29.699088,-95.386922,7:30am - 4pm,7:30am - 4pm,7:30am - 4pm,7:30am - 4pm,7:30am - 4pm,n/a,n/a,
VBA244,362,Houston Regional Benefits Office at Frank Tejeda Outpatient Clinic,5788 Eckhert Road,,San Antonio,Texas,78240,210-699-5040/5017/5022,"210-699-5079, 713-383-1984",29.512456,-98.622881,7:30am - 3:30pm,7:30am - 3:30pm,7:30am - 3:30pm,7:30am - 3:30pm,7:30am - 3:30pm,Closesd,Closed,
VBA245,317,NAS JAX VR&E,NAS JAX Yorktown Ave,Building 13,Jacksonville,FL,32212,904-542-3286,904-542-1475,30.22,-81.7,8 am - 4:30 pm ,8 am - 4:30 pm,8 am - 4:30 pm,8 am - 4:30 pm,8 am - 4:30 pm,CLOSED,CLOSED,
VBA246,362,SAMMC JB San Antonio,3551 Roger Brooke Drive,"Annex C, Trailer 15",Fort Sam Houston,Texas,78234,210-916-8278,210-916-4615,29.460713,-98.418561,7:30am - 4pm,7:30am - 4pm,7:30am - 4pm,7:30am - 4pm,7:30am - 4pm,Closed,Closed,
VBA247,362,SAMMC JB San Antonio,3551 Roger Brooke Drive,"Annex C, Trailer 15",Fort Sam Houston,Texas,78234,210-916-9721/7729,713-383-1984,29.460713,-98.418561,7:30am - 4pm,7:30am - 4pm,7:30am - 4pm,7:30am - 4pm,7:30am - 4pm,Closed,Closed,
VBA248,317,Orlando Lake Nona Office,13800 Veterans Way,VBA Room #C102,Orlando,FL,32827,407-631-1645,407-631-1971,28.365366,-81.274839,8 am - 4 pm,8 am - 4 pm,8 am - 4 pm,8 am - 4 pm,8 am - 4 pm,CLOSED,CLOSED,
VBA249,362,Wilford Hall Medical Center,"2200 Bergquist Drive, Suite 1",BLDG 4550,Lackland AFB,Texas,78236,210-292-7231,713-383-2605,29.399252,-98.620405,7:30am - 4pm,7:30am - 4pm,7:30am - 4pm,7:30am - 4pm,7:30am - 4pm,Closed,Closed,
VBA250,317,The Villages VR&E Office,8900 SE 165th Mulberry Lane,Room 161,The Villages,FL,32162,352-674-5090,352-374-5012,28.980318,-82.00517,8 am - 4 pm,8 am - 4 pm,8 am - 4 pm,8 am - 4 pm,8 am - 4 pm,CLOSED,CLOSED,
VBA251,362,Wilford Hall Medical Center,"2200 Bergquist Drive, Suite 1",,Lackland Air Force Base,Texas,78236,210-292-6947,713-383-1984,29.399252,-98.620405,7:30am - 4pm,7:30am - 4pm,7:30am - 4pm,7:30am - 4pm,7:30am - 4pm,Closed,Closed,
VBA252,362,"Corpus Christi, Vocational Rehabilitation and Employment Services Office",4646 Corona Suite 150,,Corpus Christi,Texas,78411,361-584-7731,361-584-5007,27.71404,-97.389617,7:30am - 4pm,7:30am - 4pm,7:30am - 4pm,7:30am - 4pm,7:30am - 4pm,Closed,Closed ,
VBA253,362,"McAllen, Vocational Rehabilitation and Employment Services Office",3900 North Tenth Street,Box 132,McAllen,Texas,78501,956-992-9877/9876,956-630-3569,26.238148,-98.223434,7:30am - 4pm,7:30am - 4pm,7:30am - 4pm,7:30am - 4pm,7:30am - 4pm,Closed,Closed,
VBA254,362,"Houston Community College, VetSuccess on Campus",3220A Main Street,Suite 105,Houston,Texas,77002,713-718-2309,713-383-1984,29.741505,-95.377159,8am - 4:30pm,8am - 4:30pm,8am - 4:30pm,8am - 4:30pm,8am - 4:30pm,Closed,Closed ,
VBA255,N/A,Augusta Field Office,1 Freedom Way,Room 2D105,Augusta,Georgia,30904,706-733-0188 Ext. 6809,706-481-6735,33.464559,-82.026497,8 am - 4 pm,8 am - 4 pm,8 am - 4 pm,8 am - 4 pm,8 am - 4 pm,N/A,N/A,
VBA256,362,"Sam Houston State University, VetSuccess on Campus ",1922 Ave J,"Academic Building III, Room 116",Huntsville,Texas,77341,936-294-2263,713-383-1984,30.715206,-95.549255,8am - 4:30pm,8am - 4:30pm,8am - 4:30pm,8am - 4:30pm,8am - 4:30pm,Closed,Closed,
VBA257,N/A,Columbus Field Office,233 12th Street,Suite 820,Columbus,Georgia,31901,706-649-7844,706-649-7697,32.469014,-84.989413,8 am - 4 pm,8 am - 4 pm,8 am - 4 pm,8 am - 4 pm,8 am - 4 pm,N/A,N/A,
VBA258,362,"University of Houston, VetSuccess on Campus ",202 Student Center North,,Houston,Texas,77204,832-842-6189,713-383-1984,33.233888,-97.17464,8am - 4:30pm,8am - 4:30pm,8am - 4:30pm,8am - 4:30pm,8am - 4:30pm,Closed,Closed,
VBA259,N/A,Fort Benning,6520 Marchant Avenue,Bldg. 2751,Ft. Benning,Georgia,31905,706-649-5338,706-649-5389,32.35898,-84.976457,8 am - 4 pm,8 am - 4 pm,8 am - 4 pm,8 am - 4 pm,8 am - 4 pm,N/A,N/A,
VBA260,362,"Lone Star College, VetSuccess on Campus ",20515 SH 249 RM,NRB 200K,Houston,Texas,77070,281-290-3671,713-383-1984,29.7589,-95.3677,8am - 4:30pm,8am - 4:30pm,8am - 4:30pm,8am - 4:30pm,8am - 4:30pm,Closed,Closed,
VBA261,N/A,Ft. Benning,6600 Van Aalst Boulevard,,Ft. Benning,Georgia,31905,762-408-1327,762-408-1446,32.3524,-84.9688,8 am - 4 pm,8 am - 4 pm,8 am - 4 pm,8 am - 4 pm,8 am - 4 pm,N/A,N/A,
VBA262,362,"San Antonio College, VetSuccess on Campus ",1300 San Pedro Ave,"Veterans Affairs Office Moody Bldg, 1st Floor",San Antonio,Texas,78212,210-486-0018,713-383-1984,29.4246,-98.4951,7:30am - 4pm,7:30am - 4pm,7:30am - 4pm,7:30am - 4pm,7:30am - 4pm,Closed,Closed,
VBA263,362,"University of Texas, VetSuccess on Campus ",One UTSA Circle,,San Antonio,Texas,78249,210-458-8081/82,713-383-1984,29.552454,-98.663533,8am - 4:30pm,8am - 4:30pm,8am - 4:30pm,8am - 4:30pm,8am - 4:30pm,Closed,Closed,
VBA264,362,Soldiers & Families Assistance Center,Army Support Activity,3931 Okubo Barracks JBSA,Fort Sam Houston,Texas,78234,210-916-9397,713-383-1984,29.46,-98.44,7:30am - 4pm,7:30am - 4pm,7:30am - 4pm,7:30am - 4pm,7:30am - 4pm,Closed,Closed,
VBA265,362,Naval Health Clinic Corpus Christi,10651 E Street,Room 1504,Corpus Christi,Texas,78419,"361-961-6000, Ext. 36152",361-961-2969,27.69229,-97.277963,8am - 4:30pm,8am - 4:30pm,8am - 4:30pm,8am - 4:30pm,8am - 4:30pm,Closed,Closed,
VBA266,N/A,Ft. Gordon,405 Barnes Avenue,Building 29610,Ft. Gordon,Georgia,30905,706-796-7041,706-796-7021,33.421,-82.1621,8 am - 4 pm,8 am - 4 pm,8 am - 4 pm,8 am - 4 pm,8 am - 4 pm,N/A,N/A,
VBA267,N/A,Ft. Gordon,234 Central Hospital Road,Building 329,Ft. Gordon,Georgia,30905,706-787-9064,N/A,33.421,-82.1621,8 am - 4 pm ,8 am - 4 pm,8 am - 4 pm,8 am - 4 pm,8 am - 4 pm,N/A,N/A,
VBA268,N/A,Ft. Stewart,55 Pony Soldier Road,"Building 253, Suite 1056",Ft. Stewart,Georgia,31314,912-368-6951,N/A,34.866002,-111.792003,8 am - 4 pm ,8 am - 4 pm,8 am - 4 pm,8 am - 4 pm,8 am - 4 pm,N/A,N/A,
VBA269,N/A,Ft. Stewart,229 West General Screvan Way,Suite H,Hinesville,Georgia,31313,912-435-7261,N/A,31.8477,-81.596,8 am - 4 pm,8 am - 4 pm,8 am - 4 pm,8 am - 4 pm,8 am - 4 pm,N/A,N/A,
VBA270,348,Portland Regional Benefit Office,100 SW Main Street,Floor 2,Portland,Oregon,97204,800-827-1000,503-412-4733,45.514869,-122.675701,8 am - 4 pm,8 am - 4 pm,8 am - 4 pm,8 am - 4 pm,8 am - 4 pm,Closed,Closed,
VBA271,343,Oakland Regional Benefit Office,"1301 Clay Street, North Tower",,Oakland,CA,94612,800-827-1000,510-637-6118,37.804927,-122.274913,8:30 am ��_��__ 4 pm,8:30 am ��_��__ 4 pm,8:30 am ��_��__ 4 pm,8:30 am ��_��__ 4 pm,8:30 am ��_��__ 4 pm,Closed,Closed,
VBA272,343,Sacramento VBA Satellite Office,10365 Old Placerville Rd,,Sacramento,CA,95827,800-827-1000,510-637-6118,38.567276,-121.307734,Closed,8:30 am - 4:00 pm,Closed,8:30 am - 4:00 pm,Closed,Closed,Closed,
VBA273,N/A,Walter Reed National Military Medical Center,"Medical Bldg 11, Room 156",,Bethesda,MD,20889,301-319-8467,215-991-1442,38.9848,-77.0946,7:30-4:00,7:30-4:00,7:30-4:00,7:30-4:00,7:30-4:00,closed,closed,
VBA274,N/A,Fort Belvoir,808 Farrell Road,Room NS 104,Fort Belvoir,VA,22060,301-400-2463,215-991-1442,38.7119,-77.1459,7:00 - 3:30,7:00 - 3:30,7:00 - 3:30,7:00 - 3:30,7:00 - 3:30,closed,closed,
VBA275,N/A,Quantico Marine Base,3025 John Quick Road,,Quantico,VA,22134,703-432-1814,703-432-1869,38.523351,-77.31022,7:00-3:30,7:00-3:30,7:00-3:30,7:00-3:30,7:00-3:30,closed,closed,
VBA276,N/A,University of Maryland University College,3501 University Blvd. East,,Adelphi,MD,20783,240-684-2555,240-684-2301,38.985808,-76.95675,8:00 - 4:30,8:00 - 4:30,8:00 - 4:30,8:00 - 4:30,8:00 - 4:30,closed,closed,
VBA277,N/A,George Mason University,4400 University Drive ,MS N 3A4,Fairfax,VA,22033,703-993-4464,N/A,38.834716,-77.312683,7:30 - 5:00,7:30 - 5:00,7:30 - 5:00,7:30 - 5:00,7:30 - 5:00,closed,closed,
VBA278,N/A,Northern Virginia Community College - Alexandria campus,3001 North Beauregard St,"Bisdorf Building, Room 194",Alexandria,VA,22311,703-323-3893,703-575-4706,38.840488,-77.115195,8:00 - 3:30,8:00 - 3:30,8:00 - 3:30,8:00 - 3:30,8:00 - 3:30,closed,closed,
VBA279,610A4,VA Northern Indiana Health Care System (Marion),1700 East 38th Street,"Building 138, Room 356",Marion,IN,46953,1-800-360-8387 ext 71327,765-677-3164,40.520479,-85.638062,8 am - 4pm,8 am - 4pm,8 am - 4pm,8 am - 4pm,8 am - 4pm,Closed,Closed,
VBA280,610A4,VA Northern Indiana Health Care System (Fort Wayne),2121 Lake Avenue,,Fort Wayne,IN,46805,1-800-360-8387 ext 71327,260-460-1336,41.090709,-85.109497,8 am - 4 pm,8 am - 4 pm,8 am - 4 pm,8 am - 4 pm,8 am - 4 pm,Close,Closed,
VBA281,N/A,Camp Atterbury,647 Gatling Street,Attn:  CAIN MEBROC MSC,Edinburgh,IN,46124,812-526-1499 ext 62112,812-526-1208,36.001587,-76.954344,7 am - 4:30 pm,7 am - 4:30 pm,7 am - 4:30 pm,7 am - 4:30 pm,7 am - 4:30 pm,Closed,Closed,
VBA282,583,Seamless Transition Integrated Care Clinic (STICC),1481 W. 10th Street,,Indianapolis,IN,46202,317-988-5295,317-988-5359,39.778642,-86.187359,8 am - 4 pm,8 am - 4 pm,8 am - 4 pm,8 am - 4 pm,8 am - 4 pm,Closed,Closed,
VBA283,N/A,Ft. Stewart,1145 Niles Avenue,Building 4973,Ft. Stewart,Georgia,31314,912-435-9748,N/A,31.874042,-81.601241,8 am - 4 pm,8 am - 4 pm,8 am - 4 pm,8 am - 4 pm,8 am - 4 pm,N/A,N/A,
VBA284,N/A,Robins Air Force Base,655 Seventh Street,Room M026,Robins AFB,Georgia,31908,478-327-3346,N/A,33.468328,-81.966516,8 am - 4 pm,8 am - 4 pm,8 am - 4 pm,8 am - 4 pm,8 am - 4 pm,N/A,N/A,
VBA285,N/A,Savannah Field Office,613 Stephenson Avenue,Suite 203,Savannah,Georgia,31405,912-355-1128,912-355-1280,32.010248,-81.102923,8 am - 4 pm,8 am - 4 pm,8 am - 4 pm,8 am - 4 pm,8 am - 4 pm,N/A,N/A,
VBA286,N/A,Tifton Field Office,114 West 12th Street,Suite F,Tifton,Georgia,31794,229-388-0081,229-388-8410,32.468555,-84.994729,8 am - 4 pm,8 am - 4 pm,8 am - 4 pm,8 am - 4 pm,8 am - 4 pm,N/A,N/A,
VBA287,319,Columbia Regional Office,6437 Garners Ferry Road,,Columbia,South Carolina,29209,800-827-1000,N/A,33.978448,-80.962753,8 am - 4:30 pm,8 am - 4:30 pm,8 am - 4:30 pm,8 am - 4:30 pm,8 am - 4:30 pm,N/A,N/A,
VBA288,N/A,Fayetteville VA Medical Center,2301 Robeson Street,Suite 110,Fayetteville,North Carolina,28301,910-488-2120 ,910-822-7093,35.043136,-78.917733,8 am - 4:30 pm,8 am - 4:30 pm,8 am - 4:30 pm,8 am - 4:30 pm,8 am - 4:30 pm,N/A,N/A,
VBA289,327,Louisville Regional Benefit Office,321 W Market St Suite 390,,Louisville,KY,40202,502-566-4453 (VRE)       1-888-407-0144 (FID HUB),502-217-9963 (VRE)       1-215-991-7905 (FID HUB),38.255084,-85.75546,8am - 4pm,8am - 4pm,8am - 4pm,8am - 4pm,8am - 4pm,Closed,Closed,
VBA290,327,VRE Outbased Office,955 Fairview Ave,Suite 100,Bowling Green,KY,42010-4937,270-783-3495,270-843-4465,36.990735,-86.42976,8am - 4pm,8am - 4pm,8am - 4pm,8am - 4pm,8am - 4pm,Closed,Closed,
VBA291,327,UK & BCTC VetSuccess on Campus VR&E Office,Veterans Resource Center,100 W.D. Funkhouser Bldg.,Lexington,KY,40506-0054,859-212-2876,859-257-3823,47.74878,-122.360585,8am - 4pm,8am - 4pm,8am - 4pm,8am - 4pm,8am - 4pm,Closed,Closed,
VBA292,327,EKU VetSuccess on Campus VR&E Office,Burnan House,317 Lancaster Avenue,Richmond,KY,40475,859-622-1297,859-622-5076,37.74557,-84.299282,8am - 4pm,8am - 4pm,8am - 4pm,8am - 4pm,8am - 4pm,Closed,Closed,
VBA293,327,Leestown VAMC Vocational Rehabilitation & Employment,VAMC 116-LD,2250 Leestown Rd,Lexington,KY,40511-1052,859-281-3837,859-281-3839,38.073939,-84.539158,8am - 4pm,8am - 4pm,8am - 4pm,8am - 4pm,8am - 4pm,Closed,Closed,
VBA294,309,Newark VA Regional Office,20 Washington Place ,,Newark ,New Jersey,7102,973-297-3348,973-297-3361,40.742447,-74.17088,8:30 am - 4:30pm,8:30 am - 4:30pm,8:30 am - 4:30pm,8:30 am - 4:30pm,8:30 am - 4:30pm,closed,closed,Closed on Federal Holidays��_��__
VBA295,327,Ft. Knox VR&E Office,1109c Spearhead Division Ave.,,Ft. Knox,KY,40121,502-942-3250,502-943-8729,37.893614,-85.950217,8am - 4pm,8am - 4pm,8am - 4pm,8am - 4pm,8am - 4pm,Closed,Closed,
VBA296,327,Fort Knox BDD Site,"1109 Spearhead Division Ave., Wing B, Rm 0.24 basement",,Fort Knox,KY,40121,502-942-3970,502-942-6086,37.893614,-85.950217,8am - 2:30 pm,8am - 2:30 pm,8am - 2:30 pm,8am - 2:30 pm,12pm - 4pm,Closed,Closed,
VBA297,327,Fort Knox IDES Center,"433 192nd Armored Tank Battalion Road, Bldg. 853 Ireland Ave.",,Fort Knox,KY,40121,502-624-3576        and       502-624-3311,502-624-3603,37.8911,-85.9636,7:30am - 4pm,7:30am - 4pm,7:30am - 4pm,7:30am - 4pm,7:30am - 4pm,Closed,Closed,
VBA298,327,Louisville Fiduciary Hub (LFH) - San Juan Office,50 Carr 165,,Guaynabo,Puerto Rico,00968-8024,1-888-407-0144,1-215-991-7905,18.3411,-66.1163,8am - 4:30 pm,8am - 4:30 pm,8am - 4:30 pm,8am - 4:30 pm,8am - 4:30 pm,Closed,Closed,
VBA299,345,Davis-Monthan Air Force Base, 355th Medical Group,4175 S Alamo Ave,Tucson,AZ,85707,520-228-2649,602-627-3040,32.173166,-110.860122,630AM - 3PM,none,630AM - 3PM,none,630AM - 3PM,none,none,
VBA300,345,Fort Huachuca,Raymond Bliss Army Health Center,2240 E Winrow Ave  ,Ft Huachuca,AZ,85613-7079,520-228-2649,602-627-3040,31.549046,-110.352233,NONE,630am  -3pm,NONE,630am  -3pm,NONE,NONE,NONE,
VBA301,325,Cleveland Regional Benefit Office,1240 E. 9th Street,,Cleveland,Ohio,44199,216-522-3530,216-522-2457,41.504868,-81.691708,8:30 am - 4:30 pm ,8:30 am - 4:30 pm ,8:30 am - 4:30 pm ,8:30 am - 4:30 pm ,8:30 am - 4:30 pm ,N/A,N/A,
VBA302,345,Luke Air Force Base,56th Medical Group,7219 N Litchfield Rd # 1130,Luke AFB,AZ,85309,623-856-9379,602-627-3040,33.446655,-112.358242,NONE,6AM - 230PM,6AM - 230PM,6AM - 230PM,6AM - 230PM,NONE,NONE,
VBA303,345,Prescott VA Medical Center,Prescott VA Medical Center,"500 N State Route 89,BLDG 13. ",Prescott,AZ ,86313,602-627-3249,602-627-3040,34.5403,-112.4695,730AM - 4PM,730AM - 4PM,730AM - 4PM,730AM - 4PM,730AM - 4PM,NONE,NONE,
VBA304,N/A,VA/DOD Transition Center at Wright Patterson Air Force Base,4881 Sugar Maple Drive,,WPAFB,Ohio,45433,937-268-6511 extension 5808 or 5810,937-268-7524,39.805397,-84.037441,8 am - 12pm,None,8 am - 12pm,None,None,None,None,_Walk in claims assistance.
VBA305,345,Phoenix Regional Benefit Office,3333 N. Central Avenue,,Phoenix,AZ,85012,800-827-1000,602-627-3040,33.486328,-112.073781,8am-4pm,8am-4pm,8am-4pm,8am-4pm,8am-4pm,Closed,Closed,_Public Contact Hours
VBA306,538,Chillicothe VA Medical Center,17273 State Route 104,"Building 31, Room 3-201B",Chillicothe,Ohio,45601,740-773-1141,740-772-7197,39.387915,-83.012003,8:30 am - 4 pm,8:30 am - 4 pm,8:30 am - 4 pm,8:30 am - 4 pm,8:30 am - 4 pm,None,None,
VBA307,539,Cincinnati VA Medical Center,3200 Vine St,B149a,Cincinnati,Ohio,45220,513-487-6054,513-475-6557,39.139659,-84.508196,8 am - 4 pm,8 am - 4 pm,8 am - 4 pm,8 am - 4 pm,8 am - 4 pm,None,None,
VBA308,757,Chalmers P. Wylie Ambulatory Care Center,420 N James Road,,Columbus,Ohio,43219,614-388-7014,614-388-7520,39.980708,-82.909339,8 am - 4:30 pm,8 am - 4:30 pm,8 am - 4:30 pm,8 am - 4:30 pm,8 am - 4:30 pm,None,None,
VBA309,552,Dayton VA Medical Center,4100 W. 3rd St,,Dayton,Ohio,45428,937-268-6511,937-267-7549,39.742666,-84.264405,8 am - 4:30 pm,8 am - 4:30 pm,8 am - 4:30 pm,8 am - 4:30 pm,8 am - 4:30 pm,None,None,
VBA310,N/A,Cincinnati VA Office,36 East Seventh Street,Suite 210A,Cincinnati,Ohio,45202,513-684-2663,513-684-2024,39.103815,-84.512812,8 am - 4:30 pm,8 am - 4:30 pm,8 am - 4:30 pm,8 am - 4:30 pm,8 am - 4:30 pm,None,None,
VBA311,326,Fort Wayne Outbased Office ,2121 Lake Avenue,,Fort Wayne ,Indiana,46805,260-421-1046,260-421-1048,41.090709,-85.109497,7 am - 4:30 PM ,7 am - 4:30 PM ,7 am - 4:30 PM ,7 am - 4:30 PM ,7 am - 330 PM ,N/A,N/A,
VBA312,315,Huntington Regional Benefit Office,640 4th Avenue,,Huntington,West Virginia,25701,304-399-9340,304-399-9355,38.420306,-82.447869,8 am - 4 pm,8 am - 4 pm,8 am - 4 pm,8 am - 4 pm,8 am - 4 pm,Closed,Closed,
VBA313,326,Marion Out Based Office ,Marion VA Medical Center ,"VBA VR&E - Bldg 138, Room 351 ",Marion,Indiana,46953,260-426-5431 x 73804,N/A,40.523651,-85.637168,8 am - 4 pm,8 am - 4 pm,8 am - 4 pm,8 am - 4 pm,8 am - 4 pm,N/A,N/A,
VBA314,326,Scottsburg Out Based Office,Scott County VA Clinic ,1467 N Scott Valley Drive ,Scottsburg,Indiana,56654,877-690-1938  ext 56654 ,812-752-7026,41.088623,-85.274917,8 am - 4:30 PM,8 am - 4:30 PM,N/A,Alternating Thursdays 8 am - 4:30 PM,N/A,N/A,N/A,
VBA315,320,Nashville Regional Office,"110 9th Avenue, South",,Nashville,Tennessee,37203,615-695-6207,615-695-6312,36.15814,-86.783282,8 am - 4 pm,8 am - 4 pm,8 am - 4 pm,8 am - 4 pm,8 am - 4 pm,N/A,N/A,
VBA316,326,Columbus Outbased Office ,Department of Veterans Affairs VBA VR&E (28) ,4555 Central Ave  Suite 1300 ,Columbus,Indiana,47203,812-314-8561,812-314-8555,41.600306,-87.366856,N/A,N/A,8 am - 4:30 PM ,Alternating Thursdays 8 am - 4:30 PM ,8 am - 4:30 PM ,N/A,N/A,
VBA317,318,Winston Salem Regional Office,251 N. Main Street,,Winston-Salem,North Carolina,27155,336-251-6884,336-251-6632,36.096945,-80.243311,8 am - 4 pm,8 am - 4 pm,8 am - 4 pm,8 am - 4 pm,8 am - 4 pm,N/A,N/A,
VBA318,326,Evansville Out Based Office ,1100 N Burkhardt Road,,Evansville,Indiana,47715,(812) 910-0047,(812) 473-4028,37.986724,-87.474525,8 am - 5:30 PM,8 am - 5:30 PM,8 am - 5:30 PM,8 am - 5:30 PM,8 am - 4:30 PM Alternating Fridays,N/A,N/A,
VBA319,401,Providence VA Regional Office,380 Westminster St ,,Providence,RI,2903,(401)223-3700,(401)223-3679,41.82111,-71.414661,8 am - 4 pm,8 am - 4 pm,8 am - 4 pm,8 am - 4 pm,8 am - 4 pm,8 am - 4 pm,8 am - 4 pm,
VBA320,315,"Huntington Regional Benefit Office, Westover Out based location","40 Commerce Drive, Suite 101",,Westover,WV,26501,304-623-3461 x4709,304-292-7537,31.330507,-89.356168,8 am - 4 pm,8 am - 4 pm,8 am - 4 pm,8 am - 4 pm,8 am - 4 pm,Closed,Closed,
VBA321,315,"Huntington Regional Benefit Office, Clarksburg Out based location",1 Medical Center Drive,,Clarksburg,WV,26301,"304-623-3461, x 3327",304-623-7618,39.653374,-79.957224,8 am - 4 pm,8 am - 4 pm,8 am - 4 pm,8 am - 4 pm,8 am - 4 pm,Closed,Closed,
VBA322,315,"Huntington Regional Office, Martinsburg Out based location",510 Butler Avenue,,Martinsburg,WV,25405,"304-263-0811, x4677",304-262-1394,39.417648,-77.911414,8 am - 4 pm,8 am - 4 pm,8 am - 4 pm,8 am - 4 pm,8 am - 4 pm,Closed,Closed,
VBA323,315,"Huntington Regional Office, Beckley Out based location",200 Veterans Avenue,,Beckley,WV,25801,"304-255-2121, x4770",304-256-5158,37.765018,-81.193372,8 am - 4 pm,8 am - 4 pm,8 am - 4 pm,8 am - 4 pm,8 am - 4 pm,Closed,Closed,
VBA324,315,"Huntington Regional Office, Charleston Out based location",521 Central Avenue,,Charleston,WV,25302,"304-429-6741, x4215",304-292-7537,38.362244,-81.649493,8 am - 4 pm,8 am - 4 pm,8 am - 4 pm,8 am - 4 pm,8 am - 4 pm,Closed,Closed,
VBA325,463,"Anchorage VA Regional Office, Vocational Rehabilitation and Employment Service Office",1201 N. Muldoon Road,,Anchorage,Alaska,99577,907-433-1060,907-257-6780,61.231198,-149.742651,8 am to 4:30 pm,8 am to 4:30 pm,8 am to 4:30 pm,8 am to 4:30 pm,8 am to 4:30 pm,Closed,Closed,
VBA326,306,New York Regional Office,245 W Houston Street,,New York,NY,10014,800-827-1000,212-807-4005,40.728616,-74.005432,8:30 am - 4 pm,8:30 am - 4 pm,8:30 am - 4 pm,8:30 am - 4 pm,8:30 am - 4 pm,Closed,Closed,
VBA327,306,New York Regional Office at Montrose VAMC,"2094 Albany Post Road, Bldg. 14",,Montrose,NY,10548,800-827-1000,914-788-4861,41.237021,-73.929233,8:30AM - 4PM,8:30AM - 4PM,8:30AM - 4PM,8:30AM - 4PM,8:30AM - 4PM,Closed,Closed,
VBA328,463,Anchorage Veterans Service Center,1201 N. Muldoon Street,,Anchorage,Alaska,99504,800-827-1000,907-257-6750 ,61.231198,-149.742651,8:30 am - 4 pm,8:30 am - 4 pm,8:30 am - 4 pm,8:30 am - 4 pm,8:30 am - 4 pm,Closed,Closed,
VBA329,348,Portland  Regional Office Vocational Rehabilitation Division,100 SW Main St,Floor 2,Portland,Oregon,97204,503-412-4577,503-412-4740,45.514869,-122.675701,8 am - 4 pm,8 am - 4 pm,8 am - 4 pm,8 am - 4 pm,8 am - 4 pm,Closed,Closed,
VBA330,348,Portland  Regional Office Vocational Rehabilitation Division Eugene Outbased Office,211 East 7th Ave,,Eugene,OR,97401,503-412-4577,541-485-7606,44.05267,-123.08891,8 am -4:30 pm,8 am -4:30 pm,8 am -4:30 pm,8 am -4:30 pm,8 am -4:30 pm,Closed,Closed,
VBA331,348,Portland  Regional Office Vocational Rehabilitation Division Vancouver Outbased Office,1601 E Fourth Pain Blvd,"V3CH31, Bldg 18",Vancouver,WA,98661,503-412-4577,360-759-1679,45.623855,-122.654968,8 am -4:30 pm,8 am -4:30 pm,8 am -4:30 pm,8 am -4:30 pm,8 am -4:30 pm,Closed,Closed,
VBA332,348,Portland  Regional Office Vocational Rehabilitation Division Medford Outbased Office,1237 N Riverside,Suite 30,Medford,OR,97501,503-412-4577,541-772-4219,42.33879,-122.87704,8 am -5:00 pm,8 am -5:00 pm,8 am -5:00 pm,8 am -5:00 pm,8 am -5:00 pm,Closed,Closed,
VBA333,348,Portland  Regional Office Vocational Rehabilitation Division VetSuccess on Campus Portland State University,724 SW Harrison,,Portland,Oregon,97204,503-412-4577,N/A,45.5202,-122.6742,8 am -4:30 pm,8 am -4:30 pm,8 am -4:30 pm,8 am -4:30 pm,8 am -4:30 pm,Closed,Closed,
VBA334,348,Portland  Regional Office Vocational Rehabilitation Division VetSuccess on Campus Portland Community College,P.O. Box 19000,,Portland,Oregon,97280,503-412-4577,N/A,45.5202,-122.6742,8 am -4:30 pm,8 am -4:30 pm,8 am -4:30 pm,8 am -4:30 pm,8 am -4:30 pm,Closed,Closed,
VBA335,340,Albuquerque Regional Benefit Office,500 Gold Ave. SW,,Albuquerque,NM,87102,800-827-1000,505-346-4807,35.083531,-106.653596,8 am - 4 pm,8 am - 4 pm,8 am - 4 pm,8 am - 4 pm,8 am - 4 pm,Closed,Closed,_Closed on national holidays.
VBA336,3401,Las Cruces Oubased VRE Office,2460 Locust St,Ste G,Las Cruces,New Mexico,88001,575-522-5631,575-522-5877,32.287571,-106.748741,8 AM - 4:30 PM,8 AM - 4:30 PM,8 AM - 4:30 PM,8 AM - 4:30 PM,8 AM - 4:30 PM,Closed ,Closed,
VBA337,3402,VetSuccess on University of New Mexico,University of New Mexico,SUB Suite 2002,Albuquerque,New Mexico,87131,505-277-3265,505-224-3097,35.051711,-106.702301,8 AM - 4:30 PM,8 AM - 4:30 PM,8 AM - 4:30 PM,8 AM - 4:30 PM,8 AM - 4:30 PM,Closed,Closed,
VBA338,3403,Vetsucess on Central New Mexico Community,Central New Mexico Community College,525 Buena Vista Dr. SE,Albuquerque,New Mexico,87106,505-224-3265,505-224-3097,35.054257,-106.622295,8 AM - 4:30 PM,8 AM - 4:30 PM,8 AM - 4:30 PM,8 AM - 4:30 PM,8 AM - 4:30 PM,Closed ,Closed,
VBA339,463,Federal Building Fairbanks,101 12th  Avenue,First Floor #114,Fairbanks,Alaska,99701,907-433-1060,N/A,64.837674,-147.706769,08:00 a.m. -4:30,08:00 a.m. -4:30,08:00 a.m. -4:30,08:00 a.m. -4:30,08:00 a.m. -4:30,Closed,Closed,
VBA340,463,Fort Richardson - Soldier Family Assistance Center ,4986 Zuckert St ,,JBER,Alaska,99506,907-433-1060,N/A,38.820467,-76.855042,08:00 a.m. -4:30,08:00 a.m. -4:30,08:00 a.m. -4:30,08:00 a.m. -4:30,08:00 a.m. -4:30,Closed,Closed,
VBA341,463,University of Anchorage Alaska - VSOC,Office of Student Affairs  University of Alaska Anchorage VA/VSOCP,"3211 Providence Dr , A-4614  ",Anchorage,Alaska,99508,907-786-6962,N/A,61.189847,-149.818764,7:74 - 3:45,7:74 - 3:45,7:74 - 3:45,7:74 - 3:45,7:74 - 3:45,Closed,Closed,
VBA342,343,Oakland Regional Office,1301 Clay Street,Suite 1400 North,Oakland,CA,94612,510-637-6128,510--637-6119,37.804927,-122.274913,8am - 4pm,8am - 4pm,8am - 4pm,8am - 4pm,8am - 4pm,NA,NA,
VBA343,Fresno Outbased VR&E,Fresno,"855 M Street, Suite 150",,Fresno,CA,93721,559-443-1491,559-443-1091,36.734199,-119.785923,8am-4:30pm,8am-4:30pm,8am-4:30pm,8am-4:30pm,8am-4:30pm,NA,NA,
VBA344,343,Sacramento OPR,10365 Old Placerville Road,,Sacramento,CA,95827,916-364-6700,916-364-6708,38.567276,-121.307734,8am-4pm,8am-4pm,8am-4pm,8am-4pm,8am-4pm,NA,NA,
VBA345,343,Chico-VR&E Outbased,15 Ilahee Lane,,Chico,CA,95973,530-893-4213,530-893-4217,39.752185,-121.870387,8am-4pm,8am-4pm,8am-4pm,8am-4pm,8am-4pm,NA,NA,
VBA346,343,VA-PAHCS Palo Alto VR&E Out-based office,3801 Miranda Avenue,,Palo alto,CA,94304,650-493-5000 X67858,650-858-8900,37.405054,-122.140261,8am-4pm,8am-4pm,8am-4pm,8am-4pm,8am-4pm,NA,NA,
VBA347,346/28,Seattle VRE Office,915 2nd Ave.     ,,Seattle,WA,98174,206-341-8228,206-341-8687,47.604569,-122.335363,7:30 am - 4 pm,7:30 am - 4 pm,7:30 am - 4 pm,7:30 am - 4 pm,7:30 am - 4 pm,closed,closed,
VBA348,346/28,Lakewood VRE Office,9116 Gravelly Lake Dr. SW,Suite 107,Lakewood,WA,98499,256-582-2729,253-582-9369,47.17371,-122.51716,7:30 am - 4 pm,7:30 am - 4 pm,7:30 am - 4 pm,7:30 am - 4 pm,7:30 am - 4 pm,closed,closed,
VBA349,373,Manchester Regional Benefit Office,275 Chestnut Street,,Manchester,NH,3101,603-222-5765,603-222-5741,42.988247,-71.460518,8:30 am - 4:00 pm,8:30 am - 4:00 pm,8:30 am - 4:00 pm,8:30 am - 4:00 pm,8:30 am - 4:00 pm,Closed,Closed,
VBA350,405,White River Junction Regional  Office,215 North Main Street,Mail Code (21),White River Junction,VT,5009,802-295-9363 ,802-296-5196,43.64991,-72.321874,8am-4pm,8am-4pm,8am-4pm,8am-4pm,8am-4pm,NA,NA,
VBA351,346/28,IDES Building,R6100 Building N. 18th St.  ,,Fort Lewis,WA,98433,253-966-1277,253-967-3429,47.265215,-122.49712,7:30 am - 4 pm,7:30 am - 4 pm,7:30 am - 4 pm,7:30 am - 4 pm,7:30 am - 4 pm,N/a,N/a,
VBA352,346/28,SFAC/Wounded Warrior Battalion,9059 Gardner Loop ,,Fort Lewis,WA,98433,253-967-7053,253-967-7053,47.1087,-122.555,7:30 am - 4 pm,7:30 am - 4 pm,7:30 am - 4 pm,7:30 am - 4 pm,7:30 am - 4 pm,N/a,N/a,
VBA353,301,Boston Regional Office,15 Sudbury St,,Boston,MA,2203,617-303-1384,617-303-5558,42.362524,-71.058215,8am to 4:30pm,8am to 4:30pm,8am to 4:30pm,8am to 4:30pm,8am to 4:30pm,closed,closed,
VBA354,346/28,Bremerton VRE Office,500Pacific Ave. , Suite 602A,Bremerton,WA,98337,206-341-8601,360-479-1465,47.556076,-122.670507,7:30am - 4pm,7:30am - 4pm,7:30am - 4pm,7:30am - 4pm,7:30am - 4pm,N/a,N/a,
VBA355,346/28,Mount Vernon VRE Office,1420 Roosevelt Ave. ,Suite #1   ,Mount Vernon,WA,98273,360-424-4396,360-424-8800,48.433374,-122.323106,7:30 am - 4 pm,7:30 am - 4 pm,7:30 am - 4 pm,7:30 am - 4 pm,7:30 am - 4 pm,Na,na,
VBA356,346/28,Spokane VRE Office,4815 N. Assembly St.     ,Bldg 6A ,Spokane,WA  ,99205, 509-434-751,509-434-7127,47.702547,-117.477464,7:30 am -4 pm,7:30 am -4 pm,7:30 am -4 pm,7:30 am -4 pm,7:30 am -4 pm,N/a,Na,
VBA357,346/28,Lewiston VRE Office,1158 Idaho St. ,,Lewiston,ID  ,83501,208-743-1282,208-743-9104,46.417152,-117.018682,7:30 am - 4 pm,7:30 am - 4 pm,7:30 am - 4 pm,7:30 am - 4 pm,7:30 am - 4 pm,na,na,
VBA358,346,Seattle Regional Office - Jackson Federal Building,915 Second Avenue ,,Seattle ,WA ,98174,206-341-8665,206-341-8686,47.604569,-122.335363,4-Aug,4-Aug,4-Aug,4-Aug,4-Aug,na,na,
VBA359,346,Waller Hall BDD Intake Site - Joint Base Lewis-Mcchord,Bldg 2140 Liggett Ave,,Joint Base Lewis-McChord,WA  ,98433,253-967-7107,206-341-8686,47.089719,-122.608165,8am-4pm,8am-4pm,8am-4pm,8am-4pm,8am-4pm,na,na,
VBA360,346,Bremerton Satellite Office,500 Pacific Avenue ,,Bremerton ,WA ,98337,206-341-8600,206-341-8686,47.566892,-122.626632,8am-4pm,8am-4pm,8am-4pm,8am-4pm,8am-4pm,na,na,
VBA361,346,Disability Rating Activity Site Seatac,SeaTac Office Center North Tower,17930 Pacific Hwy S.,Seatac ,WA ,98188,206-965-3443,206-341-8686,47.442415,-122.29616,8:00 am-4:30 pm,8:00 am-4:30 pm,8:00 am-4:30 pm,8:00 am-4:30 pm,8:00 am-4:30 pm,na,na,
VBA362,346,Joint Base Lewis McChord,R6100 N 18th Street,,Tacoma ,WA ,98431,1-800-827-1000,206-341-8686,47.265215,-122.49712,8:00am - 4:30pm,8:00am - 4:30pm,8:00am - 4:30pm,8:00am - 4:30pm,8:00am - 4:30pm,na,na,
VBA363,344,Los Angeles Regional Benefit Office,11000 Wilshire Blvd.,,Los Angeles ,California,90024,(800) 827-1000,(844) 822-5246,34.056651,-118.448964,8 am - 3:30 pm,8 am - 3:30 pm, 8 am - 3:30 pm,8 am - 3:30 pm,8 am - 3:30 pm,Closed,Closed,_Closed on all Federal Holidays.
VBA364,(213) 253-2677 Ext 24759,Los Angeles Ambulatory Care Center,351 East Temple Street,Room A-444,Los Angeles,CA,90012,(213) 253-2677 Ext 24759,(213) 253-5552,34.052558,-118.238589,8:00 am - 2:30 pm,8:00 am - 2:30 pm,8:00 am - 2:30 pm,8:00 am - 2:30 pm,Appointment Only,Facility Closed,Facility Closed,
VBA365,Not Applicable,Long Beach VA Medical Center VR&E Outbased,5901 East 7th Street,OP 126 Room 20,Long Beach,CA,90822,(562) 826-8000 Ext 5320,(562) 826-5217,33.775319,-118.118942,8:00 am - 2:00 pm,Appointment Only,8:00 am - 2:00 pm,Appointment Only,8:00 am - 2:00 pm,Closed,Closed,
VBA366,Not Applicable,Loma Linda VA Medical Center VR&E Outbased Site,11201 Benton Street,Room 1F02,Loma Linda,CA,92357,(909) 583-6216,(909) 777-3818,34.050245,-117.25072,6:00 am - 3:00 pm,6:00 am - 3:00 pm,6:00 am - 3:00 pm,6:00 am - 3:00 pm,6:00 am - 3:00 pm,Appointment Only,Closed,
VBA367,344,Fort Irwin,Army Carrer and Alumni Program (ACAP),4553 Tippecanoe Street,Fort Irwin,ca,92310,760-780-9060,na,35.260062,-116.700347,8:30 am - 1:00 pm ,closed,closed,8:30 am - 1:00 pm,8:30 am - 1:00 pm,closed,closed,
VBA368,Not Applicable,Sepulveda Ambulatory Care Center,16111  Plummer Street,Building 200 Charles Marshall Team,North Hills,CA,91343,(818) 891-7711 Ext 32728,None,34.242868,-118.480626,7:00 am - 4:00 pm,7:00 am - 4:00 pm,7:00 am - 4:00 pm,7:00 am - 4:00 pm,7:00 am - 4:00 pm,Closed,Closed,
VBA369,Not Applicable,Sepulveda Ambulatory Care Center,16111 Plummer Street,Building 10 Basement,North Hills,CA,91343,(818) 891-7711 Extension 31229,None,34.242868,-118.480626,7:30 am - 4:00 pm,7:30 am - 4:00 pm,7:30 am - 4:00 pm,7:30 am - 4:00 pm,7:30 am - 4:00 pm,Closed,Closed,
VBA370,344,Edwards AFB,Family Support Center,,Edward AFB,CA,93524,NA,NA,38.441034,-122.719064,closed,8:30 am - 1:00 pm,closed,closed,closed,closed,closed,_Intinerant��_��__ Tuesdays - when IDES cases are pending to be processed
VBA371,344,Port Hueneme,Family support Center ,,Port Hueneme,ca,93043,805-512-4903,na,38.441034,-122.719064,closed,closed,8:30 am - 1:00 pm,closed,closed,closed,closed,_2nd and 4th Wednesday of each month
VBA372,344,29 Palms,Marine Corps Air Ground Combat Center,Building 1437 or 29,29 Palms,ca,92277,760-830-2541,na,34.13673,-116.007486,8:30 am - 1:00 pm,8:30 am - 1:00 pm,8:30 am - 1:00 pm,8:30 am - 1:00 pm,8:30 am - 1:00 pm ,closed,closed,
VBA373,344,Los Angeles AFB,Family Support Center,,El Segundo,ca,90245,na,na,38.441034,-122.719064,closed,closed,closed,closed,closed,closed,closed,_Itinerant - Visit the site only when needed to process IDES case
VBA374,Not Applicable,Ventura Vet Center VR&E Outbased ,790 East Santa Clara Street,Suite 100,Ventura,CA,93001,(805) 565-1573,(805) 585-1864,34.279291,-119.288843,8:00 am to 4:30 pm,8:00 am to 4:30 pm,8:00 am to 4:30 pm,8:00 am to 4:30 pm,8:00 am to 4:30 pm,Closed,Closed,
VBA375,Not Applicable,Laguna Hills Community Based Outpatient Clinic VR&E Outbased,25292 McIntyre  Street,Suite K,Laguna Hills,CA,92653,(562) 826-8582,(310) 235-6247,33.596097,-117.679793,7:30 am - 3:30 pm,7:30 am - 3:30 pm,7:30 am - 3:30 pm,7:30 am - 3:30 pm,7:30 am - 3:30 pm,Closed,Closed,
VBA376,Not Applicable,Bakersfield Vet Center VR&E Outbased,1110 Golden State Avenue,,Bakersfield,CA,93001,(661) m322-0101,None,35.384374,-119.013829,8:00 am - 4:00 pm,8:00 am - 4:00 pm,8:00 am - 4:00 pm,8:00 am - 4:00 pm,8:00 am - 4:00 pm,Closed,Closed,
VBA377,Not Applicable,High Desert Vet Center VR&E Outbased,15095 Amargosa Road,Suite 107,Victorville,CA,92394,(760) 261-5925,(310) 235-6247,34.524932,-117.329495,8:00 am - 4:00 pm,8:00 am - 4:00 pm,8:00 am - 4:00 pm,8:00 am - 4:00 pm,8:00 am - 4:00 pm,Closed,Closed,
VBA378,Not Applicable,CSU Los Angeles VR&E Outbased,5151 University Drive,Veteran Resource Center,Los Angeles,CA,90032,(323) 343-5085,(310) 235-6247,33.658253,-117.808392,9:00 AM - 4:30 PM,9:00 AM - 4:30 PM,Closed,Closed,Closed,Closed,Closed,_Keri Fujiwara is a VetSuccess on Campus Counselor and has regular office hours on campuse pm Mondays and Tuesdays
VBA379,Not Applicable,Pasadena City College,1570 East Colorado Blvd.,Veteran Resource Center,Pasadena,CA,91107,(626) 585-1226 Ext 4,(310) 235-6247,34.142459,-118.119815,Closed,Closed,Closed,9:00 am - 4:00 pm,9:00 am - 4:00 pm,Closed,Closed,_Keri Fujiwara is a VetSuccess on Campus Counselor and maintains office hours on Thursdays and Fridays only.
VBA380,Not Applicable,Los Angeles City College VR&E Outbased,855 North Vermont ,,Los Angeles,CA,90029,(323) 953-4000 Ext 1253,(310) 235-6247,34.086756,-118.291721,Closed,Closed,9:00 am - 4:00 pm,Closed,Closed,Closed,Closed,
VBA381,Not Applicable,Mt. San Antonio College VR&E Outbased,1100 North Grand Avenue,Veteran Resource Center,Walnut,CA,91789,(909) 274-4417,(310) 235-6247,34.048324,-117.842001,Closed,Closed,9:00 am - 4:30 pm,9:00 am - 4:30 pm,9:00 am - 4:30 pm,Closed,Closed,_Mark Smith is located within the Veteran Resource Center.
VBA382,Not Applicable,Citrus College VR&E Outbased,1000 West Foothill Blvd,Veteran Resource Center,Glemdora,CA,91741,(626) 852-6457,(310) 235-6247,34.136034,-117.880198,9:00 am - 4:00 pm,9:00 am - 4:00 pm,Closed,Closed,Closed,Closed,Closed,_Maerk Smith is assigned to the Veteran Resource Center
VBA383,Not Applicable,Saddleback Community College VR&E Outbased,28000 Marguerita Parkway,Veteran Resource Center,Mission Viego,CA,92692,(949) 582-6457,(949) 582-4700,43.090607,-79.088284,Closed,Closed,8:00 am - 4:30 pm,8:00 am - 4:30 pm,8:00 am - 4:30 pm,Closed,Closed,_Jamie Bacon is assigned to the Veterans Resource Center
VBA384,Not Applicable,Irvine Valley College VR&E Outbased,5500 Irvine Center Drive,Veterans Resource Center,Irvine,CA,92618,(949) 451-5296,(949) 451-5666,33.67734,-117.775609,8:00 am - 4:00 pm,8:00 am - 4:00 pm,Closed,Closed,Closed,Closed,Closed,_Jamie Bacon is located at the Veterans Resource Center on campus
VBA385,Not Applicable,CSU at Long Beach VR&E Outbased,1250 Bellflower Blvd,Veterans Resource Center,Long Beach,CA,90840,(562) 985-5115,(310) 235-6247,33.787094,-118.123411,Closed,9:00 am - 5:30 pm,Closed,Closed,9:00 am - 5:30 pm,Closed,Closed,_Lois Daz is located at the Veterans Resource Center
VBA386,Not Applicable,Long Beach City College VR&E Outbased,4901 Carson Street,Veterans Resource Center,Long Beach,CA,90808,(562) 938-4162,(310) 235-6247,33.832328,-118.135245,9:00 am - 5L30 pm,Closed,9:00 am - 5L30 pm,9:00 am - 5L30 pm,Closed,Closed,Closed,_Lois Daz is loocated at the Veterans Resource Center
VBA387,Not Applicable,Long Beach City College VR&E Outbased,4901 Carson Street,Veterans Resource Center,Long Beach,CA,90808,(562) 938-4162,(310) 235-6247,33.832328,-118.135245,9:00 am - 5:30 pm,Closed,9:00 am - 5:30 pm,9:00 am - 5:30 pm,Closed,Closed,Closed,_Lois Daz is located at the Veterans Resource Center
VBA388,Not Applicable,State of California Employment Development Department VR&E Outbased,1420 West Avenue L,,Lancaster,CA,93534,(661) 726-4128,(310) 235-6247,34.660309,-118.156184,8:00 am - 4:00 pm,Closed,8:00 am - 4:00 pm,Closed,Closed,Closed,Closed,_Sylvia Love may be reached at (310) 235-6232
VBA389,Not Applicable,Ft Irwin Army Base VR&E Outbased,4553 Tippiecanoe Street,"Building 105, Room 104",Ft Irwin,CA,92311,(760) 380-3209,(310) 235-6247,34.99831,-116.92906,8:00 am - 3:00 pm,By Appointment,8:00 am - 3:00 pm,8:00 am - 3:00 pm,By Appointment,Closed,Closed,
VBA390,Not Applicable,29 Palms MCAGCC Base VR&E Outbased,1433 Sturgis Road,,29 Palms,CA,92778,(760)  830-3714,(310) 235-6247,34.231647,-116.05467,7:00 am - 3:30 pm,7:00 am - 3:30 pm,7:00 am - 3:30 pm,7:00 am - 3:30 pm,7:00 am - 3:30 pm,Closed,Closed,
VBA391,Not Applicable,Los Angeles Vet Center VR&E Outbased,1045 West Redondo Beach Blvd,Suite 150,Gardena ,CA,90247,(310) 767-1221,(310) 235-6247,33.893096,-118.292981,8:00 am - 4:00 pm,8:00 am - 4:00 pm,8:00 am - 4:00 pm,8:00 am - 4:00 pm,8:00 am - 4:00 pm,Closed,Closed,
VBA392,Not Applicable,Chatsworth Vet Center VR&E Outbased,20946 Devonshire Blvd,Suite 101,Chatsworth,CA,91311,(818) 576-0201,(818) 576--216,34.256849,-118.590336,8:00 am - 4:00 pm,8:00 am - 4:00 pm,8:00 am - 4:00 pm,8:00 am - 4:00 pm,8:00 am - 4:00 pm,Closed,Closed,
VBA393,Not Applicable,Los Angeles Regional Office VR&E,11000 Wilshire Blvd,3rd Floor,"Los Angeles, CA",CA,90024,(310) 235-7722,(310) 235-6247,34.056651,-118.448964,8:00 am - 3:30 pm,8:00 am - 3:30 pm,8:00 am - 3:30 pm,8:00 am - 3:30 pm,8:00 am - 3:30 pm,Closed,Closed,
